{"meta":{"council_id":"lancaster","fetched":"2026-03-02","source":"Downloaded from Lancaster City Council HMO Register (Nov 2024) (PDF)","register_url":"https://www.lancaster.gov.uk/assets/attach/14038/HMO-Licensing-Register.-Nov.-24.pdf","register_name":"Lancaster City Council HMO Register (Nov 2024)","coverage":"register+planning"},"register":[{"address":"20 Hope Street, Lancaster, Lancashire, LA1 3BQ 25/04/2022 25/04/2027 5 Bedrooms 5","postcode":"LA1 3BQ","max_occupants":20,"ward":"John O'Gaunt","lat":54.043356,"lng":-2.792398,"lsoa":"Lancaster 015E"},{"address":"28 Thurnham Street, Lancaster, Lancashire, LA1 1XU 24/09/2018 24/09/2023 10 Bedrooms 10","postcode":"LA1 1XU","max_occupants":28,"ward":"Castle","lat":54.045877,"lng":-2.79851,"lsoa":"Lancaster 014E"},{"address":"5 North Road, Carnforth, Lancashire, LA5 9LQ 30/08/2024 30/08/2029 6 Bedrooms 6","postcode":"LA5 9LQ","max_occupants":5,"ward":"Carnforth & Millhead","lat":54.127341,"lng":-2.768479,"lsoa":"Lancaster 001D"},{"address":"56a Main Road, Galgate, Lancaster, Lancashire, LA2 0LB 13/08/2020 13/08/2025 6 Bedrooms 6","postcode":"LA2 0LB","max_occupants":13,"ward":"Ellel","lat":53.991203,"lng":-2.789394,"lsoa":"Lancaster 019B"},{"address":"8 Laund Gardens, Galgate, Lancaster, Lancashire, LA2 0LE 29/04/2019 15/09/2024 5 Bedrooms 5","postcode":"LA2 0LE","max_occupants":8,"ward":"Ellel","lat":53.990532,"lng":-2.787505,"lsoa":"Lancaster 019B"},{"address":"9 Laund Gardens, Galgate, Lancaster, Lancashire, LA2 0LE 24/05/2024 24/05/2029 5 Bedrooms 5","postcode":"LA2 0LE","max_occupants":9,"ward":"Ellel","lat":53.990532,"lng":-2.787505,"lsoa":"Lancaster 019B"},{"address":"Seftons Farm, Cottage 1, Bay Horse Road, Ellel, Lancaster, Lancashire, LA2 0QA 08/04/2024 08/04/2029 5 Bedrooms 3","postcode":"LA2 0QA","max_occupants":8,"ward":"Ellel","lat":54.001467,"lng":-2.755705,"lsoa":"Lancaster 019A"},{"address":"Seftons Farm, Cottage 2, Bay Horse Road, Ellel, Lancaster, Lancashire, LA2 0QA 15/07/2024 15/07/2029 5 Bedrooms 3","postcode":"LA2 0QA","max_occupants":2,"ward":"Ellel","lat":54.001467,"lng":-2.755705,"lsoa":"Lancaster 019A"},{"address":"Seftons Farm, Cottage 3, Bay Horse Road, Ellel, Lancaster, Lancashire, LA2 0QA 08/04/2024 08/04/2029 7 Bedrooms 4","postcode":"LA2 0QA","max_occupants":3,"ward":"Ellel","lat":54.001467,"lng":-2.755705,"lsoa":"Lancaster 019A"},{"address":"Hampson Farm, Hampson Lane, Hampson, Lancaster, Lancashire, LA2 0JB 08/04/2024 08/04/2029 10 Bedrooms 5","postcode":"LA2 0JB","max_occupants":8,"ward":"Ellel","lat":53.979197,"lng":-2.776664,"lsoa":"Lancaster 019A"},{"address":"Condergarth, Kit Brow Lane, Ellel, Lancaster, Lancashire, LA2 0QQ 08/04/2024 08/04/2029 9 Bedrooms 5","postcode":"LA2 0QQ","max_occupants":8,"ward":"Ellel","lat":54.004449,"lng":-2.761847,"lsoa":"Lancaster 019A"},{"address":"The New House, Condergarth, Kit Brow Lane, Ellel, Lancaster, Lancashire, LA2 0QQ 08/04/2024 08/04/2029 5 Bedrooms 5","postcode":"LA2 0QQ","max_occupants":8,"ward":"Ellel","lat":54.004449,"lng":-2.761847,"lsoa":"Lancaster 019A"},{"address":"Stirzakers Farm, Saltoake Road, Bay Horse, Lancaster, Lancashire, LA2 0HS 08/04/2024 08/04/2029 6 Bedrooms 6","postcode":"LA2 0HS","max_occupants":8,"ward":"Ellel","lat":53.972304,"lng":-2.777999,"lsoa":"Lancaster 019A"},{"address":"Middle Crag House, Starbank, Dolphinholme, Lancaster, Lancashire, LA2 9AS 08/08/2024 08/08/2029 6 Bedrooms 5","postcode":"LA2 9AS","max_occupants":8,"ward":"Ellel","lat":53.988302,"lng":-2.74685,"lsoa":"Lancaster 019A"},{"address":"Hurstwood, Stoney Lane, Ellel, Lancaster, Lancashire, LA2 0PX 08/04/2024 08/04/2029 6 Bedrooms 3","postcode":"LA2 0PX","max_occupants":8,"ward":"Ellel","lat":53.9895,"lng":-2.778914,"lsoa":"Lancaster 019A"},{"address":"19 Yewdale Avenue, Heysham, Morecambe, Lancashire, LA3 2LR 23/10/2023 23/10/2028 5 Bedrooms 5","postcode":"LA3 2LR","max_occupants":19,"ward":"Heysham South","lat":54.040315,"lng":-2.894272,"lsoa":"Lancaster 016F"},{"address":"1-3 De Vitre Street, Lancaster, Lancashire, LA1 1QU 19/06/2023 19/06/2028 6 Bedrooms 6","postcode":"LA1 1QU","max_occupants":3,"ward":"Castle","lat":54.051445,"lng":-2.79382,"lsoa":"Lancaster 014A"},{"address":"101 Scotforth Road, Lancaster, Lancashire, LA1 4JN 01/08/2022 01/08/2027 5 Bedrooms 5","postcode":"LA1 4JN","max_occupants":8,"ward":"Scotforth East","lat":54.030628,"lng":-2.794034,"lsoa":"Lancaster 018B"},{"address":"104 Greaves Road, Lancaster, Lancashire, LA1 4UP 27/01/2023 27/01/2028 6 Bedrooms 6","postcode":"LA1 4UP","max_occupants":27,"ward":"Scotforth West","lat":54.038945,"lng":-2.796284,"lsoa":"Lancaster 015D"},{"address":"Flat A, Alexandra Hall, 107 Penny Street, Lancaster, Lancashire, LA1 1XN 20/03/2024 20/03/2029 5 Bedrooms 5","postcode":"LA1 1XN","max_occupants":20,"ward":"Castle","lat":54.045887,"lng":-2.799747,"lsoa":"Lancaster 014E"},{"address":"Flat B, Alexandra Hall, 107 Penny Street, Lancaster, Lancashire, LA1 1XN 20/03/2024 20/03/2029 5 Bedrooms 5","postcode":"LA1 1XN","max_occupants":20,"ward":"Castle","lat":54.045887,"lng":-2.799747,"lsoa":"Lancaster 014E"},{"address":"107 Scotforth Road, Lancaster, Lancashire, LA1 4JN 15/02/2024 15/02/2029 6 Bedrooms 6","postcode":"LA1 4JN","max_occupants":15,"ward":"Scotforth East","lat":54.030628,"lng":-2.794034,"lsoa":"Lancaster 018B"},{"address":"10a New Street, Lancaster, Lancashire, LA1 1EG 13/05/2020 13/05/2025 8 Bedrooms 8","postcode":"LA1 1EG","max_occupants":13,"ward":"Castle","lat":54.049269,"lng":-2.802149,"lsoa":"Lancaster 014E"},{"address":"10 Dallas Road, Lancaster, Lancashire, LA1 1TN 23/06/2023 23/06/2028 6 Bedrooms 6","postcode":"LA1 1TN","max_occupants":10,"ward":"Castle","lat":54.047848,"lng":-2.804871,"lsoa":"Lancaster 014E"},{"address":"10 Dumbarton Road, Lancaster, Lancashire, LA1 3BX 11/03/2024 11/03/2029 5 Bedrooms 5","postcode":"LA1 3BX","max_occupants":10,"ward":"John O'Gaunt","lat":54.045878,"lng":-2.792935,"lsoa":"Lancaster 015B"},{"address":"10 Hubert Place, Lancaster, Lancashire, LA1 5PF 28/10/2022 28/10/2027 5 Bedrooms 7","postcode":"LA1 5PF","max_occupants":10,"ward":"Marsh","lat":54.051152,"lng":-2.812099,"lsoa":"Lancaster 014C"},{"address":"10 New Road, Lancaster, Lancashire, LA1 1EZ 16/02/2024 16/02/2029 6 Bedrooms 6","postcode":"LA1 1EZ","max_occupants":10,"ward":"Castle","lat":54.050239,"lng":-2.802152,"lsoa":"Lancaster 014E"},{"address":"Flat 4, 10 Pitt Street, Lancaster, Lancashire, LA1 1NX 14/06/2024 14/06/2029 5 Bedrooms 5","postcode":"LA1 1NX","max_occupants":4,"ward":"Castle","lat":54.050144,"lng":-2.797614,"lsoa":"Lancaster 014A"},{"address":"Flat 6, 10 Pitt Street, Lancaster, Lancashire, LA1 1NX 14/06/2024 14/06/2029 5 Bedrooms 5","postcode":"LA1 1NX","max_occupants":6,"ward":"Castle","lat":54.050144,"lng":-2.797614,"lsoa":"Lancaster 014A"},{"address":"Flat 8, 10 Pitt Street, Lancaster, Lancashire, LA1 1NX 14/06/2024 14/06/2029 5 Bedrooms 5","postcode":"LA1 1NX","max_occupants":8,"ward":"Castle","lat":54.050144,"lng":-2.797614,"lsoa":"Lancaster 014A"},{"address":"10 Wellington Road, Lancaster, Lancashire, LA1 4DN 01/11/2021 01/11/2026 5 Bedrooms 5","postcode":"LA1 4DN","max_occupants":10,"ward":"Bowerham","lat":54.036643,"lng":-2.790881,"lsoa":"Lancaster 018D"},{"address":"112 Greaves Road, Lancaster, Lancashire, LA1 4UP 28/03/2024 28/03/2029 5 Bedrooms 5","postcode":"LA1 4UP","max_occupants":28,"ward":"Scotforth West","lat":54.038945,"lng":-2.796284,"lsoa":"Lancaster 015D"},{"address":"112 Prospect Street, Lancaster, Lancashire, LA1 3BH 24/08/2022 24/08/2027 5 Bedrooms 5","postcode":"LA1 3BH","max_occupants":24,"ward":"John O'Gaunt","lat":54.04266,"lng":-2.793103,"lsoa":"Lancaster 015E"},{"address":"Flat 11, 112 St Leonards Gate, Lancaster, Lancashire, LA1 1NN 29/03/2019 29/03/2024 7 Bedrooms 7","postcode":"LA1 1NN","max_occupants":11,"ward":"Castle","lat":54.049989,"lng":-2.797932,"lsoa":"Lancaster 014A"},{"address":"114 Greaves Road, Lancaster, Lancashire, LA1 4UP 01/11/2022 01/11/2027 5 Bedrooms 5","postcode":"LA1 4UP","max_occupants":11,"ward":"Scotforth West","lat":54.038945,"lng":-2.796284,"lsoa":"Lancaster 015D"},{"address":"114 Prospect Street, Lancaster, Lancashire, LA1 3BH 15/06/2021 15/06/2026 5 Bedrooms 5","postcode":"LA1 3BH","max_occupants":15,"ward":"John O'Gaunt","lat":54.04266,"lng":-2.793103,"lsoa":"Lancaster 015E"},{"address":"11 Balmoral Road, Lancaster, Lancashire, LA1 3BT 16/08/2021 16/08/2026 5 Bedrooms 5","postcode":"LA1 3BT","max_occupants":11,"ward":"John O'Gaunt","lat":54.04651,"lng":-2.791252,"lsoa":"Lancaster 015B"},{"address":"11 Park Square, Lancaster, Lancashire, LA1 3EH 28/10/2022 28/10/2027 5 Bedrooms 6","postcode":"LA1 3EH","max_occupants":11,"ward":"Bulk","lat":54.048259,"lng":-2.790323,"lsoa":"Lancaster 013C"},{"address":"11 South Road, Lancaster, Lancashire, LA1 4XJ 06/08/2023 06/08/2028 8 Bedrooms 8","postcode":"LA1 4XJ","max_occupants":11,"ward":"Castle","lat":54.043368,"lng":-2.797484,"lsoa":"Lancaster 014F"},{"address":"11 Springfield Street, Lancaster, Lancashire, LA1 4XL 03/10/2022 03/10/2027 5 Bedrooms 5","postcode":"LA1 4XL","max_occupants":11,"ward":"Castle","lat":54.043953,"lng":-2.797358,"lsoa":"Lancaster 014E"},{"address":"11 St Oswald Street, Lancaster, Lancashire, LA1 3AS 06/05/2020 06/05/2025 5 Bedrooms 5","postcode":"LA1 3AS","max_occupants":11,"ward":"John O'Gaunt","lat":54.042176,"lng":-2.791414,"lsoa":"Lancaster 015E"},{"address":"11 West Road, Lancaster, Lancashire, LA1 5PG 03/01/2020 03/01/2025 5 Bedrooms 5","postcode":"LA1 5PG","max_occupants":11,"ward":"Marsh","lat":54.050581,"lng":-2.81279,"lsoa":"Lancaster 014C"},{"address":"121 Scotforth Road, Lancaster, Lancashire, LA1 4JN 01/08/2022 01/08/2027 5 Bedrooms 5","postcode":"LA1 4JN","max_occupants":8,"ward":"Scotforth East","lat":54.030628,"lng":-2.794034,"lsoa":"Lancaster 018B"},{"address":"124 Greaves Road, Lancaster, Lancashire, LA1 4UW 03/07/2024 03/07/2029 6 Bedrooms 6","postcode":"LA1 4UW","max_occupants":3,"ward":"Scotforth West","lat":54.037958,"lng":-2.795945,"lsoa":"Lancaster 015D"},{"address":"1 Wells Yard, 129 St Leonards Gate, Lancaster, Lancashire, LA1 1NL 15/10/2019 15/10/2024 6 Bedrooms 6","postcode":"LA1 1NL","max_occupants":15,"ward":"Castle","lat":54.049739,"lng":-2.797606,"lsoa":"Lancaster 014A"},{"address":"2 Wells Yard, 129 St Leonards Gate, Lancaster, Lancashire, LA1 1NL 28/11/2019 28/11/2024 5 Bedrooms 5","postcode":"LA1 1NL","max_occupants":2,"ward":"Castle","lat":54.049739,"lng":-2.797606,"lsoa":"Lancaster 014A"},{"address":"12 Albion Street, Lancaster, Lancashire, LA1 1DY 07/04/2020 07/04/2025 5 Bedrooms 5","postcode":"LA1 1DY","max_occupants":12,"ward":"Bulk","lat":54.05256,"lng":-2.792345,"lsoa":"Lancaster 014A"},{"address":"12a New Street, Lancaster, Lancashire, LA1 1EG 04/05/2023 04/05/2028 8 Bedrooms 8","postcode":"LA1 1EG","max_occupants":4,"ward":"Castle","lat":54.049269,"lng":-2.802149,"lsoa":"Lancaster 014E"},{"address":"12 Briery Street, Lancaster, Lancashire, LA1 5RD 13/11/2020 13/11/2025 5 Bedrooms 5","postcode":"LA1 5RD","max_occupants":12,"ward":"Marsh","lat":54.052056,"lng":-2.812712,"lsoa":"Lancaster 014C"},{"address":"Flat 1, 12 Phoenix Street, Lancaster, Lancashire, LA1 1DD 03/07/2024 03/07/2029 5 Bedrooms 5","postcode":"LA1 1DD","max_occupants":12,"ward":"Castle","lat":54.051416,"lng":-2.796875,"lsoa":"Lancaster 014A"},{"address":"Flat 2, 12 Phoenix Street, Lancaster, Lancashire, LA1 1DD 28/03/2019 28/03/2024 6 Bedrooms 6","postcode":"LA1 1DD","max_occupants":2,"ward":"Castle","lat":54.051416,"lng":-2.796875,"lsoa":"Lancaster 014A"},{"address":"Flat 3, 12 Phoenix Street, Lancaster, Lancashire, LA1 1DD 29/03/2019 29/03/2024 6 Bedrooms 6","postcode":"LA1 1DD","max_occupants":3,"ward":"Castle","lat":54.051416,"lng":-2.796875,"lsoa":"Lancaster 014A"},{"address":"Flat 4, 12 Phoenix Street, Lancaster, Lancashire, LA1 1DD 28/03/2019 28/03/2024 5 Bedrooms 5","postcode":"LA1 1DD","max_occupants":4,"ward":"Castle","lat":54.051416,"lng":-2.796875,"lsoa":"Lancaster 014A"},{"address":"Flat 6, 12 Phoenix Street, Lancaster, Lancashire, LA1 1DD 17/12/2021 17/12/2026 6 Bedrooms 6","postcode":"LA1 1DD","max_occupants":6,"ward":"Castle","lat":54.051416,"lng":-2.796875,"lsoa":"Lancaster 014A"},{"address":"12 Redvers Street, Lancaster, Lancashire, LA1 5EA 07/08/2022 07/08/2027 5 Bedrooms 5","postcode":"LA1 5EA","max_occupants":12,"ward":"Marsh","lat":54.046987,"lng":-2.811391,"lsoa":"Lancaster 017D"},{"address":"12 River Street, Lancaster, Lancashire, LA1 1AD 26/02/2024 26/02/2029 6 Bedrooms 6","postcode":"LA1 1AD","max_occupants":12,"ward":"Castle","lat":54.054251,"lng":-2.807103,"lsoa":"Lancaster 014C"},{"address":"12 Scotforth Road, Lancaster, Lancashire, LA1 4ST 01/02/2023 01/02/2028 5 Bedrooms 5","postcode":"LA1 4ST","max_occupants":12,"ward":"Scotforth West","lat":54.034323,"lng":-2.79528,"lsoa":"Lancaster 015D"},{"address":"12 Springfield Street, Lancaster, Lancashire, LA1 4XL 13/05/2020 13/05/2025 5 Bedrooms 5","postcode":"LA1 4XL","max_occupants":12,"ward":"Castle","lat":54.043953,"lng":-2.797358,"lsoa":"Lancaster 014E"},{"address":"12 Troutbeck Road, Lancaster, Lancashire, LA1 3HQ 20/02/2023 20/02/2028 6 Bedrooms 6","postcode":"LA1 3HQ","max_occupants":12,"ward":"Bulk","lat":54.052398,"lng":-2.790967,"lsoa":"Lancaster 014A"},{"address":"13 Anthony Road, Lancaster, Lancashire, LA1 5DR 03/01/2024 03/01/2029 5 Bedrooms 4","postcode":"LA1 5DR","max_occupants":13,"ward":"Marsh","lat":54.046556,"lng":-2.809932,"lsoa":"Lancaster 017D"},{"address":"13 Balmoral Road, Lancaster, Lancashire, LA1 3BT 09/04/2023 09/04/2028 6 Bedrooms 6","postcode":"LA1 3BT","max_occupants":13,"ward":"John O'Gaunt","lat":54.04651,"lng":-2.791252,"lsoa":"Lancaster 015B"},{"address":"13 Cartmel Road, Lancaster, Lancashire, LA1 3NA 06/05/2020 06/05/2025 5 Bedrooms 5","postcode":"LA1 3NA","max_occupants":13,"ward":"Bulk","lat":54.058209,"lng":-2.786158,"lsoa":"Lancaster 013B"},{"address":"13 Kensington Road, Lancaster, Lancashire, LA1 4TL 09/10/2022 09/10/2027 5 Bedrooms 5","postcode":"LA1 4TL","max_occupants":13,"ward":"Scotforth West","lat":54.036203,"lng":-2.796278,"lsoa":"Lancaster 015D"},{"address":"13 Lindow Square, Lancaster, Lancashire, LA1 1SE 21/06/2024 21/06/2029 8 Bedrooms 8","postcode":"LA1 1SE","max_occupants":13,"ward":"Castle","lat":54.045332,"lng":-2.803432,"lsoa":"Lancaster 014F"},{"address":"13 Portland Street, Lancaster, Lancashire, LA1 1SZ 12/02/2021 12/02/2026 5 Bedrooms 5","postcode":"LA1 1SZ","max_occupants":13,"ward":"Castle","lat":54.044662,"lng":-2.80293,"lsoa":"Lancaster 014F"},{"address":"13 Salisbury Road, Lancaster, Lancashire, LA1 5PQ 09/06/2020 09/06/2025 5 Bedrooms 5","postcode":"LA1 5PQ","max_occupants":13,"ward":"Marsh","lat":54.050149,"lng":-2.812965,"lsoa":"Lancaster 017B"},{"address":"13 Slaidburn Drive, Lancaster, Lancashire, LA1 4QX 21/01/2024 21/01/2029 5 Bedrooms 5","postcode":"LA1 4QX","max_occupants":13,"ward":"Scotforth East","lat":54.025495,"lng":-2.78867,"lsoa":"Lancaster 018C"},{"address":"14 Blades Street, Lancaster, Lancashire, LA1 1TT 23/06/2023 23/06/2028 5 Bedrooms 6","postcode":"LA1 1TT","max_occupants":14,"ward":"Castle","lat":54.046699,"lng":-2.805979,"lsoa":"Lancaster 017C"},{"address":"14 Claughton Drive, Lancaster, Lancashire, LA1 4QW 15/02/2024 15/02/2029 5 Bedrooms 5","postcode":"LA1 4QW","max_occupants":14,"ward":"Scotforth East","lat":54.026464,"lng":-2.791711,"lsoa":"Lancaster 018C"},{"address":"14 Hubert Place, Lancaster, Lancashire, LA1 5PF 07/02/2022 07/02/2027 6 Bedrooms 6","postcode":"LA1 5PF","max_occupants":14,"ward":"Marsh","lat":54.051152,"lng":-2.812099,"lsoa":"Lancaster 014C"},{"address":"14 Kirkes Road, Lancaster, Lancashire, LA1 3DP 03/04/2023 03/04/2028 5 Bedrooms 5","postcode":"LA1 3DP","max_occupants":14,"ward":"John O'Gaunt","lat":54.046109,"lng":-2.789228,"lsoa":"Lancaster 015B"},{"address":"14 Lindow Square, Lancaster, Lancashire, LA1 1SE 27/01/2023 27/01/2028 6 Bedrooms 6","postcode":"LA1 1SE","max_occupants":14,"ward":"Castle","lat":54.045332,"lng":-2.803432,"lsoa":"Lancaster 014F"},{"address":"14 Prospect Street, Lancaster, Lancashire, LA1 3BJ 09/04/2023 09/04/2028 5 Bedrooms 5","postcode":"LA1 3BJ","max_occupants":14,"ward":"John O'Gaunt","lat":54.043648,"lng":-2.793106,"lsoa":"Lancaster 015E"},{"address":"14 Villas Court, Lancaster, Lancashire, LA1 1TR 05/06/2024 05/06/2029 5 Bedrooms 6","postcode":"LA1 1TR","max_occupants":14,"ward":"Castle","lat":54.044465,"lng":-2.805477,"lsoa":"Lancaster 017C"},{"address":"150 Greaves Road, Lancaster, Lancashire, LA1 4UW 27/07/2023 27/07/2028 5 Bedrooms 5","postcode":"LA1 4UW","max_occupants":27,"ward":"Scotforth West","lat":54.037958,"lng":-2.795945,"lsoa":"Lancaster 015D"},{"address":"15 Abbeystead Drive, Lancaster, Lancashire, LA1 4QS 28/01/2019 28/01/2024 6 Bedrooms 6","postcode":"LA1 4QS","max_occupants":15,"ward":"Scotforth East","lat":54.025264,"lng":-2.789719,"lsoa":"Lancaster 018C"},{"address":"15a King Street, Lancaster, Lancashire, LA1 1JN 06/05/2021 06/05/2026 7 Bedrooms 7","postcode":"LA1 1JN","max_occupants":6,"ward":"Castle","lat":54.048357,"lng":-2.802712,"lsoa":"Lancaster 014E"},{"address":"15 Blades Street, Lancaster, Lancashire, LA1 1TT 28/11/2019 28/11/2024 7 Bedrooms 7","postcode":"LA1 1TT","max_occupants":15,"ward":"Castle","lat":54.046699,"lng":-2.805979,"lsoa":"Lancaster 017C"},{"address":"Flat 5, 15 China Street, Lancaster, Lancashire, LA1 1EX 04/10/2019 04/10/2024 7 Bedrooms 7","postcode":"LA1 1EX","max_occupants":5,"ward":"Castle","lat":54.04929,"lng":-2.803035,"lsoa":"Lancaster 014E"},{"address":"15 Hubert Place, Lancaster, Lancashire, LA1 5PF 07/02/2022 07/02/2027 6 Bedrooms 6","postcode":"LA1 5PF","max_occupants":15,"ward":"Marsh","lat":54.051152,"lng":-2.812099,"lsoa":"Lancaster 014C"},{"address":"16 Gressingham Drive, Lancaster, Lancashire, LA1 4RF 04/12/2021 04/12/2026 5 Bedrooms 5","postcode":"LA1 4RF","max_occupants":16,"ward":"Scotforth East","lat":54.029631,"lng":-2.789786,"lsoa":"Lancaster 018C"},{"address":"16 Hubert Place, Lancaster, Lancashire, LA1 5PF 28/10/2022 28/10/2027 5 Bedrooms 6","postcode":"LA1 5PF","max_occupants":16,"ward":"Marsh","lat":54.051152,"lng":-2.812099,"lsoa":"Lancaster 014C"},{"address":"16 Wyresdale Road, Lancaster, Lancashire, LA1 3EA 15/02/2024 15/02/2029 5 Bedrooms 5","postcode":"LA1 3EA","max_occupants":16,"ward":"John O'Gaunt","lat":54.046222,"lng":-2.788574,"lsoa":"Lancaster 015B"},{"address":"17a Bulk Road, Lancaster, Lancashire, LA1 1DN 24/09/2024 24/09/2029 5 Bedrooms 5","postcode":"LA1 1DN","max_occupants":24,"ward":"Bulk","lat":54.053045,"lng":-2.793713,"lsoa":"Lancaster 014A"},{"address":"17 Bowerham Road, Lancaster, Lancashire, LA1 4AA 28/10/2022 28/10/2027 5 Bedrooms 5","postcode":"LA1 4AA","max_occupants":17,"ward":"Bowerham","lat":54.039731,"lng":-2.790192,"lsoa":"Lancaster 015E"},{"address":"17 Gladstone Terrace, Lancaster, Lancashire, LA1 1DW 17/04/2023 17/04/2028 5 Bedrooms 5","postcode":"LA1 1DW","max_occupants":17,"ward":"Bulk","lat":54.052579,"lng":-2.793567,"lsoa":"Lancaster 014A"},{"address":"17 Green Street, Lancaster, Lancashire, LA1 1DZ 26/04/2024 26/04/2029 6 Bedrooms 6","postcode":"LA1 1DZ","max_occupants":17,"ward":"Bulk","lat":54.052999,"lng":-2.792552,"lsoa":"Lancaster 014A"},{"address":"17 Hubert Place, Lancaster, Lancashire, LA1 5PF 09/10/2022 09/10/2027 5 Bedrooms 5","postcode":"LA1 5PF","max_occupants":17,"ward":"Marsh","lat":54.051152,"lng":-2.812099,"lsoa":"Lancaster 014C"},{"address":"17 Prospect Street, Lancaster, Lancashire, LA1 3BL 13/05/2020 13/05/2025 5 Bedrooms 5","postcode":"LA1 3BL","max_occupants":17,"ward":"John O'Gaunt","lat":54.043668,"lng":-2.792756,"lsoa":"Lancaster 015E"},{"address":"17 South Road, Lancaster, Lancashire, LA1 4XJ 25/11/2020 25/11/2025 8 Bedrooms 8","postcode":"LA1 4XJ","max_occupants":17,"ward":"Castle","lat":54.043368,"lng":-2.797484,"lsoa":"Lancaster 014F"},{"address":"17 St Oswald Street, Lancaster, Lancashire, LA1 3AS 12/10/2023 12/10/2028 5 Bedrooms 5","postcode":"LA1 3AS","max_occupants":17,"ward":"John O'Gaunt","lat":54.042176,"lng":-2.791414,"lsoa":"Lancaster 015E"},{"address":"18a Church Street, Lancaster, Lancashire, LA1 1NP 28/11/2019 28/11/2024 6 Bedrooms 6","postcode":"LA1 1NP","max_occupants":28,"ward":"Castle","lat":54.049575,"lng":-2.799237,"lsoa":"Lancaster 014E"},{"address":"18a King Street, Lancaster, Lancashire, LA1 1JY 20/07/2020 20/07/2025 5 Bedrooms 5","postcode":"LA1 1JY","max_occupants":20,"ward":"Castle","lat":54.047605,"lng":-2.802224,"lsoa":"Lancaster 014E"},{"address":"18a New Street, Lancaster, Lancashire, LA1 1EG 30/10/2023 30/10/2028 6 Bedrooms 6","postcode":"LA1 1EG","max_occupants":30,"ward":"Castle","lat":54.049269,"lng":-2.802149,"lsoa":"Lancaster 014E"},{"address":"18 Booth Gardens, Lancaster, Lancashire, LA1 5WE 28/11/2019 28/11/2024 6 Bedrooms 6","postcode":"LA1 5WE","max_occupants":18,"ward":"Marsh","lat":54.053002,"lng":-2.811066,"lsoa":"Lancaster 014C"},{"address":"18 Brock Street, Lancaster, Lancashire, LA1 1UU 07/08/2022 07/08/2027 6 Bedrooms 6","postcode":"LA1 1UU","max_occupants":18,"ward":"Castle","lat":54.047349,"lng":-2.798798,"lsoa":"Lancaster 014E"},{"address":"Flat 4, 18 China Street, Lancaster, Lancashire, LA1 1EX 17/04/2023 17/04/2028 5 Bedrooms 5","postcode":"LA1 1EX","max_occupants":4,"ward":"Castle","lat":54.04929,"lng":-2.803035,"lsoa":"Lancaster 014E"},{"address":"18 Dallas Road, Lancaster, Lancashire, LA1 1TW 28/10/2022 28/10/2027 8 Bedrooms 8","postcode":"LA1 1TW","max_occupants":18,"ward":"Castle","lat":54.046301,"lng":-2.805009,"lsoa":"Lancaster 017C"},{"address":"18 Hubert Place, Lancaster, Lancashire, LA1 5PF 08/07/2020 08/07/2025 8 Bedrooms 8","postcode":"LA1 5PF","max_occupants":18,"ward":"Marsh","lat":54.051152,"lng":-2.812099,"lsoa":"Lancaster 014C"},{"address":"18 Lentworth Drive, Lancaster, Lancashire, LA1 4RJ 02/04/2024 02/04/2029 6 Bedrooms 6","postcode":"LA1 4RJ","max_occupants":18,"ward":"Scotforth East","lat":54.029281,"lng":-2.792451,"lsoa":"Lancaster 018B"},{"address":"18 Prospect Street, Lancaster, Lancashire, LA1 3BJ 10/10/2022 10/10/2027 5 Bedrooms 5","postcode":"LA1 3BJ","max_occupants":18,"ward":"John O'Gaunt","lat":54.043648,"lng":-2.793106,"lsoa":"Lancaster 015E"},{"address":"18 South Road, Lancaster, Lancashire, LA1 4XD 21/11/2022 21/11/2027 8 Bedrooms 7","postcode":"LA1 4XD","max_occupants":18,"ward":"Castle","lat":54.042462,"lng":-2.797161,"lsoa":"Lancaster 014F"},{"address":"19 Bowerham Road, Lancaster, Lancashire, LA1 4AA 23/12/2022 23/12/2027 6 Bedrooms 6","postcode":"LA1 4AA","max_occupants":19,"ward":"Bowerham","lat":54.039731,"lng":-2.790192,"lsoa":"Lancaster 015E"},{"address":"19 Cheltenham Road, Lancaster, Lancashire, LA1 4SZ 12/04/2021 12/04/2026 5 Bedrooms 5","postcode":"LA1 4SZ","max_occupants":19,"ward":"Scotforth West","lat":54.035242,"lng":-2.79629,"lsoa":"Lancaster 017E"},{"address":"19 Coulston Road, Lancaster, Lancashire, LA1 3AD 29/11/2021 29/11/2026 6 Bedrooms 6","postcode":"LA1 3AD","max_occupants":19,"ward":"Bowerham","lat":54.038397,"lng":-2.788059,"lsoa":"Lancaster 015E"},{"address":"19 East Road, Lancaster, Lancashire, LA1 3EE 28/10/2022 28/10/2027 5 Bedrooms 7","postcode":"LA1 3EE","max_occupants":19,"ward":"Bulk","lat":54.047386,"lng":-2.793208,"lsoa":"Lancaster 014B"},{"address":"19 Golgotha Road, Lancaster, Lancashire, LA1 3AA 13/05/2020 13/05/2025 6 Bedrooms 6","postcode":"LA1 3AA","max_occupants":19,"ward":"Bowerham","lat":54.038592,"lng":-2.788368,"lsoa":"Lancaster 015E"},{"address":"19 Norfolk Street, Lancaster, Lancashire, LA1 2BP 06/05/2020 06/05/2025 5 Bedrooms 5","postcode":"LA1 2BP","max_occupants":19,"ward":"Skerton","lat":54.059187,"lng":-2.79875,"lsoa":"Lancaster 011C"},{"address":"19 River Street, Lancaster, Lancashire, LA1 1AD 01/12/2021 01/12/2026 5 Bedrooms 5","postcode":"LA1 1AD","max_occupants":19,"ward":"Castle","lat":54.054251,"lng":-2.807103,"lsoa":"Lancaster 014C"},{"address":"19 Scotforth Road, Lancaster, Lancashire, LA1 4TS 07/08/2022 07/08/2027 6 Bedrooms 6","postcode":"LA1 4TS","max_occupants":19,"ward":"Scotforth West","lat":54.03474,"lng":-2.794692,"lsoa":"Lancaster 015D"},{"address":"19 St Oswald Street, Lancaster, Lancashire, LA1 3AS 12/10/2023 12/10/2028 5 Bedrooms 5","postcode":"LA1 3AS","max_occupants":19,"ward":"John O'Gaunt","lat":54.042176,"lng":-2.791414,"lsoa":"Lancaster 015E"},{"address":"1 Aberdeen Road, Lancaster, Lancashire, LA1 3DA 07/02/2024 07/02/2029 6 Bedrooms 6","postcode":"LA1 3DA","max_occupants":7,"ward":"John O'Gaunt","lat":54.045193,"lng":-2.791868,"lsoa":"Lancaster 015B"},{"address":"1a Eastham Street, Lancaster, Lancashire, LA1 3AY 08/03/2021 08/03/2026 5 Bedrooms 5","postcode":"LA1 3AY","max_occupants":8,"ward":"John O'Gaunt","lat":54.042638,"lng":-2.790903,"lsoa":"Lancaster 015E"},{"address":"1a Queen Street, Lancaster, Lancashire, LA1 1RS 16/02/2024 16/02/2029 7 Bedrooms 7","postcode":"LA1 1RS","max_occupants":16,"ward":"Castle","lat":54.045606,"lng":-2.801483,"lsoa":"Lancaster 014E"},{"address":"1 Ash Grove, Lancaster, Lancashire, LA1 4UH 03/06/2024 03/06/2029 6 Bedrooms 6","postcode":"LA1 4UH","max_occupants":3,"ward":"Scotforth West","lat":54.037279,"lng":-2.796665,"lsoa":"Lancaster 017E"},{"address":"1 Blades Street, Lancaster, Lancashire, LA1 1TT 07/04/2020 07/04/2025 5 Bedrooms 5","postcode":"LA1 1TT","max_occupants":7,"ward":"Castle","lat":54.046699,"lng":-2.805979,"lsoa":"Lancaster 017C"},{"address":"1 Bowerham Road, Lancaster, Lancashire, LA1 4AA 28/10/2022 28/10/2027 6 Bedrooms 6","postcode":"LA1 4AA","max_occupants":28,"ward":"Bowerham","lat":54.039731,"lng":-2.790192,"lsoa":"Lancaster 015E"},{"address":"1 China Street, Lancaster, Lancashire, LA1 1EX 07/02/2024 07/02/2029 9 Bedrooms 9","postcode":"LA1 1EX","max_occupants":7,"ward":"Castle","lat":54.04929,"lng":-2.803035,"lsoa":"Lancaster 014E"},{"address":"1 Cork Road, Lancaster, Lancashire, LA1 4AJ 19/07/2024 19/07/2029 5 Bedrooms 5","postcode":"LA1 4AJ","max_occupants":19,"ward":"Bowerham","lat":54.038616,"lng":-2.786124,"lsoa":"Lancaster 013D"},{"address":"1 Coulston Road, Lancaster, Lancashire, LA1 3AD 17/10/2022 17/10/2027 7 Bedrooms 7","postcode":"LA1 3AD","max_occupants":17,"ward":"Bowerham","lat":54.038397,"lng":-2.788059,"lsoa":"Lancaster 015E"},{"address":"1 Dale Street, Lancaster, Lancashire, LA1 3AP 28/10/2022 28/10/2027 6 Bedrooms 6","postcode":"LA1 3AP","max_occupants":28,"ward":"John O'Gaunt","lat":54.043492,"lng":-2.793546,"lsoa":"Lancaster 015E"},{"address":"1 Factory Hill, Lancaster, Lancashire, LA1 1NN 06/05/2020 06/05/2025 8 Bedrooms 8","postcode":"LA1 1NN","max_occupants":6,"ward":"Castle","lat":54.049989,"lng":-2.797932,"lsoa":"Lancaster 014A"},{"address":"1 George Street, Lancaster, Lancashire, LA1 1XQ 03/12/2021 03/12/2026 7 Bedrooms 7","postcode":"LA1 1XQ","max_occupants":3,"ward":"Castle","lat":54.046907,"lng":-2.799049,"lsoa":"Lancaster 014E"},{"address":"1 Golgotha Road, Lancaster, Lancashire, LA1 3AA 24/06/2022 24/06/2027 6 Bedrooms 6","postcode":"LA1 3AA","max_occupants":24,"ward":"Bowerham","lat":54.038592,"lng":-2.788368,"lsoa":"Lancaster 015E"},{"address":"1 Hubert Place, Lancaster, Lancashire, LA1 5PF 10/11/2023 10/11/2028 8 Bedrooms 8","postcode":"LA1 5PF","max_occupants":10,"ward":"Marsh","lat":54.051152,"lng":-2.812099,"lsoa":"Lancaster 014C"},{"address":"1 Kensington Road, Lancaster, Lancashire, LA1 4TL 01/10/2023 01/10/2028 5 Bedrooms 5","postcode":"LA1 4TL","max_occupants":10,"ward":"Scotforth West","lat":54.036203,"lng":-2.796278,"lsoa":"Lancaster 015D"},{"address":"1 Meadow Street, Lancaster, Lancashire, LA1 5PH 08/11/2021 08/11/2026 5 Bedrooms 5","postcode":"LA1 5PH","max_occupants":8,"ward":"Marsh","lat":54.049629,"lng":-2.812741,"lsoa":"Lancaster 017B"},{"address":"1 Parker Street, Lancaster, Lancashire, LA1 3EP 19/10/2020 19/10/2025 6 Bedrooms 6","postcode":"LA1 3EP","max_occupants":19,"ward":"Bulk","lat":54.047498,"lng":-2.788476,"lsoa":"Lancaster 013C"},{"address":"1 Queen Street, Lancaster, Lancashire, LA1 1RS 16/02/2024 16/02/2029 8 Bedrooms 8","postcode":"LA1 1RS","max_occupants":16,"ward":"Castle","lat":54.045606,"lng":-2.801483,"lsoa":"Lancaster 014E"},{"address":"1 Ridge Lane, Lancaster, Lancashire, LA1 1EB 28/12/2021 28/12/2026 5 Bedrooms 5","postcode":"LA1 1EB","max_occupants":28,"ward":"Bulk","lat":54.053238,"lng":-2.791838,"lsoa":"Lancaster 014A"},{"address":"1 Sidney Terrace, Lancaster, Lancashire, LA1 1QY 07/05/2024 07/05/2029 5 Bedrooms 5","postcode":"LA1 1QY","max_occupants":7,"ward":"Castle","lat":54.050724,"lng":-2.794081,"lsoa":"Lancaster 014A"},{"address":"1 South Road, Lancaster, Lancashire, LA1 4XJ 10/10/2022 10/10/2027 5 Bedrooms 7","postcode":"LA1 4XJ","max_occupants":10,"ward":"Castle","lat":54.043368,"lng":-2.797484,"lsoa":"Lancaster 014F"},{"address":"1 Springfield Street, Lancaster, Lancashire, LA1 4XL 12/11/2021 12/11/2026 6 Bedrooms 6","postcode":"LA1 4XL","max_occupants":12,"ward":"Castle","lat":54.043953,"lng":-2.797358,"lsoa":"Lancaster 014E"},{"address":"1 St Leonards Gate, Lancaster, Lancashire, LA1 1NN 01/11/2022 01/11/2027 9 Bedrooms 9","postcode":"LA1 1NN","max_occupants":11,"ward":"Castle","lat":54.049989,"lng":-2.797932,"lsoa":"Lancaster 014A"},{"address":"1 Vincent Street, Lancaster, Lancashire, LA1 3BA 28/11/2019 28/11/2024 7 Bedrooms 7","postcode":"LA1 3BA","max_occupants":28,"ward":"John O'Gaunt","lat":54.043192,"lng":-2.790105,"lsoa":"Lancaster 015E"},{"address":"1 Willow Lane, Lancaster, Lancashire, LA1 5PR 18/02/2022 18/02/2027 6 Bedrooms 6","postcode":"LA1 5PR","max_occupants":18,"ward":"Marsh","lat":54.049765,"lng":-2.813798,"lsoa":"Lancaster 017B"},{"address":"2-4 Newsham Place, Lancaster, Lancashire, LA1 4DF 28/03/2024 28/03/2029 5 Bedrooms 5","postcode":"LA1 4DF","max_occupants":2,"ward":"Bowerham","lat":54.037513,"lng":-2.792547,"lsoa":"Lancaster 018D"},{"address":"20a Brock Street, Lancaster, Lancashire, LA1 1UU 04/08/2023 04/08/2028 6 Bedrooms 6","postcode":"LA1 1UU","max_occupants":4,"ward":"Castle","lat":54.047349,"lng":-2.798798,"lsoa":"Lancaster 014E"},{"address":"20 Anthony Road, Lancaster, Lancashire, LA1 5DR 20/09/2021 20/09/2026 5 Bedrooms 5","postcode":"LA1 5DR","max_occupants":20,"ward":"Marsh","lat":54.046556,"lng":-2.809932,"lsoa":"Lancaster 017D"},{"address":"Bonded Warehouse, 20a St Georges Quay, Lancaster, Lancashire, LA1 1RB 02/04/2024 02/04/2029 5 Bedrooms 5","postcode":"LA1 1RB","max_occupants":2,"ward":"Castle","lat":54.05341,"lng":-2.805131,"lsoa":"Lancaster 014C"},{"address":"20 Booth Gardens, Lancaster, Lancashire, LA1 5WE 17/11/2020 17/11/2025 6 Bedrooms 6","postcode":"LA1 5WE","max_occupants":20,"ward":"Marsh","lat":54.053002,"lng":-2.811066,"lsoa":"Lancaster 014C"},{"address":"20 China Street, Lancaster, Lancashire, LA1 1EX 15/11/2021 15/11/2026 6 Bedrooms 6","postcode":"LA1 1EX","max_occupants":20,"ward":"Castle","lat":54.04929,"lng":-2.803035,"lsoa":"Lancaster 014E"},{"address":"20 Claughton Drive, Lancaster, Lancashire, LA1 4QW 26/10/2023 26/10/2028 5 Bedrooms 5","postcode":"LA1 4QW","max_occupants":20,"ward":"Scotforth East","lat":54.026464,"lng":-2.791711,"lsoa":"Lancaster 018C"},{"address":"20 Dallas Road, Lancaster, Lancashire, LA1 1TW 08/11/2021 08/11/2026 6 Bedrooms 6","postcode":"LA1 1TW","max_occupants":20,"ward":"Castle","lat":54.046301,"lng":-2.805009,"lsoa":"Lancaster 017C"},{"address":"20 Prospect Street, Lancaster, Lancashire, LA1 3BJ 01/02/2023 01/02/2028 5 Bedrooms 5","postcode":"LA1 3BJ","max_occupants":20,"ward":"John O'Gaunt","lat":54.043648,"lng":-2.793106,"lsoa":"Lancaster 015E"},{"address":"20 Troutbeck Road, Lancaster, Lancashire, LA1 3HQ 14/06/2024 14/06/2029 5 Bedrooms 5","postcode":"LA1 3HQ","max_occupants":20,"ward":"Bulk","lat":54.052398,"lng":-2.790967,"lsoa":"Lancaster 014A"},{"address":"21 Bowerham Road, Lancaster, Lancashire, LA1 4AA 15/02/2024 15/02/2029 6 Bedrooms 6","postcode":"LA1 4AA","max_occupants":21,"ward":"Bowerham","lat":54.039731,"lng":-2.790192,"lsoa":"Lancaster 015E"},{"address":"21 Bradshaw Street, Lancaster, Lancashire, LA1 3BE 24/04/2023 24/04/2028 5 Bedrooms 5","postcode":"LA1 3BE","max_occupants":21,"ward":"John O'Gaunt","lat":54.043181,"lng":-2.791738,"lsoa":"Lancaster 015E"},{"address":"21 Coniston Road, Lancaster, Lancashire, LA1 3NJ 15/02/2024 15/02/2029 5 Bedrooms 5","postcode":"LA1 3NJ","max_occupants":21,"ward":"Bulk","lat":54.05684,"lng":-2.789417,"lsoa":"Lancaster 013B"},{"address":"21 Dale Street, Lancaster, Lancashire, LA1 3AP 06/05/2020 06/05/2025 5 Bedrooms 5","postcode":"LA1 3AP","max_occupants":21,"ward":"John O'Gaunt","lat":54.043492,"lng":-2.793546,"lsoa":"Lancaster 015E"},{"address":"21 Gladstone Terrace, Lancaster, Lancashire, LA1 1DW 18/06/2021 18/06/2026 5 Bedrooms 5","postcode":"LA1 1DW","max_occupants":21,"ward":"Bulk","lat":54.052579,"lng":-2.793567,"lsoa":"Lancaster 014A"},{"address":"21 Hall Park, Lancaster, Lancashire, LA1 4SH 12/10/2021 12/10/2026 6 Bedrooms 6","postcode":"LA1 4SH","max_occupants":21,"ward":"Scotforth West","lat":54.029823,"lng":-2.796141,"lsoa":"Lancaster 017F"},{"address":"21 Kirkes Road, Lancaster, Lancashire, LA1 3DP 09/10/2022 09/10/2027 5 Bedrooms 5","postcode":"LA1 3DP","max_occupants":21,"ward":"John O'Gaunt","lat":54.046109,"lng":-2.789228,"lsoa":"Lancaster 015B"},{"address":"21 Regent Street, Lancaster, Lancashire, LA1 1SQ 13/05/2020 13/05/2025 6 Bedrooms 6","postcode":"LA1 1SQ","max_occupants":21,"ward":"Castle","lat":54.043781,"lng":-2.804227,"lsoa":"Lancaster 014F"},{"address":"21 St Oswald Street, Lancaster, Lancashire, LA1 3AS 06/01/2022 06/01/2027 5 Bedrooms 5","postcode":"LA1 3AS","max_occupants":21,"ward":"John O'Gaunt","lat":54.042176,"lng":-2.791414,"lsoa":"Lancaster 015E"},{"address":"22 Anthony Road, Lancaster, Lancashire, LA1 5DR 16/04/2024 16/04/2029 5 Bedrooms 5","postcode":"LA1 5DR","max_occupants":22,"ward":"Marsh","lat":54.046556,"lng":-2.809932,"lsoa":"Lancaster 017D"},{"address":"22 Blades Street, Lancaster, Lancashire, LA1 1TT 23/06/2023 23/06/2028 6 Bedrooms 6","postcode":"LA1 1TT","max_occupants":22,"ward":"Castle","lat":54.046699,"lng":-2.805979,"lsoa":"Lancaster 017C"},{"address":"22 Booth Gardens, Lancaster, Lancashire, LA1 5WE 17/11/2020 17/11/2025 6 Bedrooms 6","postcode":"LA1 5WE","max_occupants":22,"ward":"Marsh","lat":54.053002,"lng":-2.811066,"lsoa":"Lancaster 014C"},{"address":"22 Prospect Street, Lancaster, Lancashire, LA1 3BJ 01/02/2023 01/02/2028 5 Bedrooms 5","postcode":"LA1 3BJ","max_occupants":22,"ward":"John O'Gaunt","lat":54.043648,"lng":-2.793106,"lsoa":"Lancaster 015E"},{"address":"22 Primrose Street, Lancaster, Lancashire, LA1 3BN 06/03/2023 06/03/2028 6 Bedrooms 6","postcode":"LA1 3BN","max_occupants":22,"ward":"John O'Gaunt","lat":54.044572,"lng":-2.79207,"lsoa":"Lancaster 015E"},{"address":"22 West Road, Lancaster, Lancashire, LA1 5PE 21/10/2022 21/10/2027 5 Bedrooms 5","postcode":"LA1 5PE","max_occupants":22,"ward":"Marsh","lat":54.049911,"lng":-2.810914,"lsoa":"Lancaster 017B"},{"address":"234 Bowerham Road, Lancaster, Lancashire, LA1 4JP 12/11/2021 12/11/2026 12 Bedrooms 12","postcode":"LA1 4JP","max_occupants":12,"ward":"Bowerham","lat":54.031899,"lng":-2.782425,"lsoa":"Lancaster 018A"},{"address":"Flat 1, 234 Bowerham Road, Lancaster, Lancashire, LA1 4JP 03/05/2024 03/05/2029 6 Bedrooms 6","postcode":"LA1 4JP","max_occupants":3,"ward":"Bowerham","lat":54.031899,"lng":-2.782425,"lsoa":"Lancaster 018A"},{"address":"Flat 2, 234 Bowerham Road, Lancaster, Lancashire, LA1 4JP 03/05/2024 03/05/2029 6 Bedrooms 6","postcode":"LA1 4JP","max_occupants":2,"ward":"Bowerham","lat":54.031899,"lng":-2.782425,"lsoa":"Lancaster 018A"},{"address":"23 Blades Street, Lancaster, Lancashire, LA1 1TT 19/06/2023 19/06/2028 8 Bedrooms 8","postcode":"LA1 1TT","max_occupants":23,"ward":"Castle","lat":54.046699,"lng":-2.805979,"lsoa":"Lancaster 017C"},{"address":"23 Bowerham Road, Lancaster, Lancashire, LA1 4AA 30/08/2023 30/08/2028 6 Bedrooms 6","postcode":"LA1 4AA","max_occupants":23,"ward":"Bowerham","lat":54.039731,"lng":-2.790192,"lsoa":"Lancaster 015E"},{"address":"Flat 1, 23 Castle Hill, Lancaster, Lancashire, LA1 1YN 25/01/2024 25/01/2029 5 Bedrooms 5","postcode":"LA1 1YN","max_occupants":23,"ward":"Castle","lat":54.04922,"lng":-2.804057,"lsoa":"Lancaster 014C"},{"address":"23 Clarence Street, Lancaster, Lancashire, LA1 3BG 22/05/2023 22/05/2028 5 Bedrooms 5","postcode":"LA1 3BG","max_occupants":23,"ward":"John O'Gaunt","lat":54.043998,"lng":-2.791815,"lsoa":"Lancaster 015B"},{"address":"23 Park Square, Lancaster, Lancashire, LA1 3EH 28/10/2022 28/10/2027 5 Bedrooms 5","postcode":"LA1 3EH","max_occupants":23,"ward":"Bulk","lat":54.048259,"lng":-2.790323,"lsoa":"Lancaster 013C"},{"address":"23 St Oswald Street, Lancaster, Lancashire, LA1 3AS 28/10/2022 28/10/2027 5 Bedrooms 5","postcode":"LA1 3AS","max_occupants":23,"ward":"John O'Gaunt","lat":54.042176,"lng":-2.791414,"lsoa":"Lancaster 015E"},{"address":"23 Ulster Road, Lancaster, Lancashire, LA1 4AH 08/04/2024 08/04/2029 5 Bedrooms 5","postcode":"LA1 4AH","max_occupants":23,"ward":"Bowerham","lat":54.037905,"lng":-2.787576,"lsoa":"Lancaster 013D"},{"address":"23 Westbourne Road, Lancaster, Lancashire, LA1 5DB 19/10/2020 19/10/2025 5 Bedrooms 5","postcode":"LA1 5DB","max_occupants":23,"ward":"Marsh","lat":54.048107,"lng":-2.809152,"lsoa":"Lancaster 014C"},{"address":"23 Willow Lane, Lancaster, Lancashire, LA1 5PR 04/04/2024 04/04/2029 6 Bedrooms 6","postcode":"LA1 5PR","max_occupants":23,"ward":"Marsh","lat":54.049765,"lng":-2.813798,"lsoa":"Lancaster 017B"},{"address":"24a-26 New Street, Lancaster, Lancashire, LA1 1EG 30/10/2023 30/10/2028 9 Bedrooms 9","postcode":"LA1 1EG","max_occupants":26,"ward":"Castle","lat":54.049269,"lng":-2.802149,"lsoa":"Lancaster 014E"},{"address":"24 Blades Street, Lancaster, Lancashire, LA1 1TT 08/11/2021 08/11/2026 6 Bedrooms 6","postcode":"LA1 1TT","max_occupants":24,"ward":"Castle","lat":54.046699,"lng":-2.805979,"lsoa":"Lancaster 017C"},{"address":"24 Booth Gardens, Lancaster, Lancashire, LA1 5WE 28/11/2019 28/11/2024 6 Bedrooms 6","postcode":"LA1 5WE","max_occupants":24,"ward":"Marsh","lat":54.053002,"lng":-2.811066,"lsoa":"Lancaster 014C"},{"address":"24 Kelsey Street, Lancaster, Lancashire, LA1 5DL 13/06/2024 13/06/2029 5 Bedrooms 5","postcode":"LA1 5DL","max_occupants":24,"ward":"Marsh","lat":54.047559,"lng":-2.809111,"lsoa":"Lancaster 017C"},{"address":"24 Prospect Street, Lancaster, Lancashire, LA1 3BJ 11/01/2021 11/01/2026 5 Bedrooms 5","postcode":"LA1 3BJ","max_occupants":24,"ward":"John O'Gaunt","lat":54.043648,"lng":-2.793106,"lsoa":"Lancaster 015E"},{"address":"Flat 2, 25a Church Street, Lancaster, Lancashire, LA1 1LP 26/02/2024 26/02/2029 5 Bedrooms 5","postcode":"LA1 1LP","max_occupants":2,"ward":"Castle","lat":54.049462,"lng":-2.800152,"lsoa":"Lancaster 014E"},{"address":"25 Blades Street, Lancaster, Lancashire, LA1 1TT 12/03/2021 12/03/2026 6 Bedrooms 6","postcode":"LA1 1TT","max_occupants":25,"ward":"Castle","lat":54.046699,"lng":-2.805979,"lsoa":"Lancaster 017C"},{"address":"25 Kirkes Road, Lancaster, Lancashire, LA1 3DP 30/09/2020 30/09/2025 5 Bedrooms 5","postcode":"LA1 3DP","max_occupants":25,"ward":"John O'Gaunt","lat":54.046109,"lng":-2.789228,"lsoa":"Lancaster 015B"},{"address":"25 Lune Street, Lancaster, Lancashire, LA1 2AJ 09/09/2020 09/09/2025 5 Bedrooms 5","postcode":"LA1 2AJ","max_occupants":25,"ward":"Skerton","lat":54.054239,"lng":-2.79948,"lsoa":"Lancaster 011C"},{"address":"25 Queen Street, Lancaster, Lancashire, LA1 1RX 04/01/2021 04/01/2026 6 Bedrooms 6","postcode":"LA1 1RX","max_occupants":25,"ward":"Castle","lat":54.044806,"lng":-2.801498,"lsoa":"Lancaster 014F"},{"address":"25 Scotforth Road, Lancaster, Lancashire, LA1 4TS 20/07/2021 20/07/2026 8 Bedrooms 8","postcode":"LA1 4TS","max_occupants":25,"ward":"Scotforth West","lat":54.03474,"lng":-2.794692,"lsoa":"Lancaster 015D"},{"address":"25 St Oswald Street, Lancaster, Lancashire, LA1 3AS 29/05/2023 29/05/2028 5 Bedrooms 5","postcode":"LA1 3AS","max_occupants":25,"ward":"John O'Gaunt","lat":54.042176,"lng":-2.791414,"lsoa":"Lancaster 015E"},{"address":"25 Westbourne Road, Lancaster, Lancashire, LA1 5DB 28/08/2024 28/08/2029 7 Bedrooms 6","postcode":"LA1 5DB","max_occupants":25,"ward":"Marsh","lat":54.048107,"lng":-2.809152,"lsoa":"Lancaster 014C"},{"address":"25 Wingate Saul Road, Lancaster, Lancashire, LA1 5DW 08/11/2021 08/11/2026 6 Bedrooms 6","postcode":"LA1 5DW","max_occupants":25,"ward":"Marsh","lat":54.046516,"lng":-2.809198,"lsoa":"Lancaster 017C"},{"address":"26 Dumbarton Road, Lancaster, Lancashire, LA1 3BX 07/11/2022 07/11/2027 6 Bedrooms 6","postcode":"LA1 3BX","max_occupants":26,"ward":"John O'Gaunt","lat":54.045878,"lng":-2.792935,"lsoa":"Lancaster 015B"},{"address":"26 St Pauls Road, Lancaster, Lancashire, LA1 4SS 08/11/2021 08/11/2026 5 Bedrooms 5","postcode":"LA1 4SS","max_occupants":26,"ward":"Scotforth West","lat":54.034541,"lng":-2.7962,"lsoa":"Lancaster 017F"},{"address":"Flat 1, 26 Sun Street, Lancaster, Lancashire, LA1 1EW 17/06/2024 17/06/2029 6 Bedrooms 6","postcode":"LA1 1EW","max_occupants":26,"ward":"Castle","lat":54.04941,"lng":-2.802427,"lsoa":"Lancaster 014E"},{"address":"Flat 2, 26 Sun Street, Lancaster, Lancashire, LA1 1EW 17/06/2024 17/06/2029 6 Bedrooms 6","postcode":"LA1 1EW","max_occupants":2,"ward":"Castle","lat":54.04941,"lng":-2.802427,"lsoa":"Lancaster 014E"},{"address":"Flat 3, 26 Sun Street, Lancaster, Lancashire, LA1 1EW 17/06/2024 17/06/2029 8 Bedrooms 8","postcode":"LA1 1EW","max_occupants":3,"ward":"Castle","lat":54.04941,"lng":-2.802427,"lsoa":"Lancaster 014E"},{"address":"26 Vine Street, Lancaster, Lancashire, LA1 4UF 03/07/2024 03/07/2029 5 Bedrooms 5","postcode":"LA1 4UF","max_occupants":26,"ward":"Scotforth West","lat":54.038203,"lng":-2.797018,"lsoa":"Lancaster 015D"},{"address":"26 Wyresdale Road, Lancaster, Lancashire, LA1 3EA 28/10/2022 28/10/2027 5 Bedrooms 5","postcode":"LA1 3EA","max_occupants":26,"ward":"John O'Gaunt","lat":54.046222,"lng":-2.788574,"lsoa":"Lancaster 015B"},{"address":"27 Alfred Street, Lancaster, Lancashire, LA1 1QN 05/06/2024 05/06/2029 6 Bedrooms 6","postcode":"LA1 1QN","max_occupants":27,"ward":"Castle","lat":54.050757,"lng":-2.79451,"lsoa":"Lancaster 014B"},{"address":"27 Borrowdale Road, Lancaster, Lancashire, LA1 3HF 03/12/2021 03/12/2026 5 Bedrooms 5","postcode":"LA1 3HF","max_occupants":27,"ward":"Bulk","lat":54.051458,"lng":-2.790399,"lsoa":"Lancaster 014A"},{"address":"The Flat, 27 Church Street, Lancaster, Lancashire, LA1 1LP 31/01/2022 31/01/2027 7 Bedrooms 7","postcode":"LA1 1LP","max_occupants":27,"ward":"Castle","lat":54.049462,"lng":-2.800152,"lsoa":"Lancaster 014E"},{"address":"27 Coulston Road, Lancaster, Lancashire, LA1 3AD 25/02/2024 25/02/2029 5 Bedrooms 5","postcode":"LA1 3AD","max_occupants":27,"ward":"Bowerham","lat":54.038397,"lng":-2.788059,"lsoa":"Lancaster 015E"},{"address":"27 Dale Street, Lancaster, Lancashire, LA1 3AP 28/10/2022 28/10/2027 6 Bedrooms 6","postcode":"LA1 3AP","max_occupants":27,"ward":"John O'Gaunt","lat":54.043492,"lng":-2.793546,"lsoa":"Lancaster 015E"},{"address":"27 Gladstone Terrace, Lancaster, Lancashire, LA1 1DW 18/06/2021 18/06/2026 5 Bedrooms 5","postcode":"LA1 1DW","max_occupants":27,"ward":"Bulk","lat":54.052579,"lng":-2.793567,"lsoa":"Lancaster 014A"},{"address":"27 Hope Street, Lancaster, Lancashire, LA1 3BQ 23/07/2021 23/07/2026 5 Bedrooms 5","postcode":"LA1 3BQ","max_occupants":27,"ward":"John O'Gaunt","lat":54.043356,"lng":-2.792398,"lsoa":"Lancaster 015E"},{"address":"27 Regent Street, Lancaster, Lancashire, LA1 1SQ 10/01/2022 10/01/2027 6 Bedrooms 6","postcode":"LA1 1SQ","max_occupants":27,"ward":"Castle","lat":54.043781,"lng":-2.804227,"lsoa":"Lancaster 014F"},{"address":"27 Westbourne Road, Lancaster, Lancashire, LA1 5DB 08/11/2021 08/11/2026 6 Bedrooms 6","postcode":"LA1 5DB","max_occupants":27,"ward":"Marsh","lat":54.048107,"lng":-2.809152,"lsoa":"Lancaster 014C"},{"address":"27 Wellington Road, Lancaster, Lancashire, LA1 4DN 25/02/2022 25/02/2027 6 Bedrooms 6","postcode":"LA1 4DN","max_occupants":27,"ward":"Bowerham","lat":54.036643,"lng":-2.790881,"lsoa":"Lancaster 018D"},{"address":"28 Brunton Road, Lancaster, Lancashire, LA1 4UQ 13/09/2021 13/09/2026 5 Bedrooms 5","postcode":"LA1 4UQ","max_occupants":28,"ward":"Scotforth West","lat":54.038003,"lng":-2.797259,"lsoa":"Lancaster 017E"},{"address":"28 Dallas Road, Lancaster, Lancashire, LA1 1TW 24/04/2024 24/04/2029 7 Bedrooms 7","postcode":"LA1 1TW","max_occupants":28,"ward":"Castle","lat":54.046301,"lng":-2.805009,"lsoa":"Lancaster 017C"},{"address":"28 Hope Street, Lancaster, Lancashire, LA1 3BQ 12/10/2022 12/10/2027 5 Bedrooms 5","postcode":"LA1 3BQ","max_occupants":28,"ward":"John O'Gaunt","lat":54.043356,"lng":-2.792398,"lsoa":"Lancaster 015E"},{"address":"28 Ullswater Road, Lancaster, Lancashire, LA1 3PP 13/11/2020 13/11/2025 5 Bedrooms 5","postcode":"LA1 3PP","max_occupants":28,"ward":"Bulk","lat":54.050667,"lng":-2.790552,"lsoa":"Lancaster 013C"},{"address":"28 West Road, Lancaster, Lancashire, LA1 5PE 03/01/2020 27/01/2025 5 Bedrooms 5","postcode":"LA1 5PE","max_occupants":28,"ward":"Marsh","lat":54.049911,"lng":-2.810914,"lsoa":"Lancaster 017B"},{"address":"Flat 1, 28 Westbourne Road, Lancaster, Lancashire, LA1 5DD 16/03/2023 16/03/2028 9 Bedrooms 8","postcode":"LA1 5DD","max_occupants":28,"ward":"Marsh","lat":54.048028,"lng":-2.810205,"lsoa":"Lancaster 014C"},{"address":"29a Church Street, Lancaster, Lancashire, LA1 1LP 06/05/2020 06/05/2025 6 Bedrooms 6","postcode":"LA1 1LP","max_occupants":6,"ward":"Castle","lat":54.049462,"lng":-2.800152,"lsoa":"Lancaster 014E"},{"address":"29 Dale Street, Lancaster, Lancashire, LA1 3AP 13/05/2020 13/05/2025 5 Bedrooms 5","postcode":"LA1 3AP","max_occupants":29,"ward":"John O'Gaunt","lat":54.043492,"lng":-2.793546,"lsoa":"Lancaster 015E"},{"address":"2 Aldcliffe Place, Lancaster, Lancashire, LA1 1SS 12/10/2021 12/10/2026 5 Bedrooms 5","postcode":"LA1 1SS","max_occupants":2,"ward":"Castle","lat":54.043076,"lng":-2.803495,"lsoa":"Lancaster 014F"},{"address":"Flat 2, The Mission, 2a Westham Street, Lancaster, Lancashire, LA1 3AU 16/02/2024 16/02/2029 6 Bedrooms 6","postcode":"LA1 3AU","max_occupants":2,"ward":"John O'Gaunt","lat":54.042304,"lng":-2.791065,"lsoa":"Lancaster 015E"},{"address":"Flat 1, The Mission, 2a Westham Street, Lancaster, Lancashire, LA1 3AU 16/02/2024 16/02/2029 6 Bedrooms 6","postcode":"LA1 3AU","max_occupants":16,"ward":"John O'Gaunt","lat":54.042304,"lng":-2.791065,"lsoa":"Lancaster 015E"},{"address":"2 Balmoral Road, Lancaster, Lancashire, LA1 3BU 19/11/2020 19/11/2025 6 Bedrooms 6","postcode":"LA1 3BU","max_occupants":2,"ward":"John O'Gaunt","lat":54.046267,"lng":-2.791263,"lsoa":"Lancaster 015B"},{"address":"2 Blades Street, Lancaster, Lancashire, LA1 1TT 10/06/2024 10/06/2029 6 Bedrooms 6","postcode":"LA1 1TT","max_occupants":2,"ward":"Castle","lat":54.046699,"lng":-2.805979,"lsoa":"Lancaster 017C"},{"address":"Pointer House (Annex), 2 Bowerham Road, Lancaster, Lancashire, LA1 3AN 05/04/2024 05/04/2029 5 Bedrooms 5","postcode":"LA1 3AN","max_occupants":2,"ward":"Scotforth West","lat":54.041886,"lng":-2.794478,"lsoa":"Lancaster 015D"},{"address":"Pointer House, 2 Bowerham Road, Lancaster, Lancashire, LA1 3AN 05/04/2024 05/04/2029 22 Bedrooms 22","postcode":"LA1 3AN","max_occupants":2,"ward":"Scotforth West","lat":54.041886,"lng":-2.794478,"lsoa":"Lancaster 015D"},{"address":"2 Calkeld Lane, Lancaster, Lancashire, LA1 1LR 04/05/2023 04/05/2028 5 Bedrooms 5","postcode":"LA1 1LR","max_occupants":2,"ward":"Castle","lat":54.049822,"lng":-2.799975,"lsoa":"Lancaster 014E"},{"address":"2 Cork Road, Lancaster, Lancashire, LA1 4AJ 16/02/2024 16/02/2029 5 Bedrooms 5","postcode":"LA1 4AJ","max_occupants":2,"ward":"Bowerham","lat":54.038616,"lng":-2.786124,"lsoa":"Lancaster 013D"},{"address":"2 Hastings Road, Lancaster, Lancashire, LA1 4TH 18/03/2024 18/03/2029 5 Bedrooms 5","postcode":"LA1 4TH","max_occupants":2,"ward":"Scotforth West","lat":54.035752,"lng":-2.79662,"lsoa":"Lancaster 017E"},{"address":"Flat 1 Ground Floor, 2 Lindow Street, Lancaster, Lancashire, LA1 1SB 22/02/2024 22/02/2029 5 Bedrooms 5","postcode":"LA1 1SB","max_occupants":2,"ward":"Castle","lat":54.045384,"lng":-2.802456,"lsoa":"Lancaster 014F"},{"address":"Flat 3 Second Floor, 2 Lindow Street, Lancaster, Lancashire, LA1 1SB 22/02/2024 22/02/2029 5 Bedrooms 5","postcode":"LA1 1SB","max_occupants":3,"ward":"Castle","lat":54.045384,"lng":-2.802456,"lsoa":"Lancaster 014F"},{"address":"Flat 2 First Floor, 2 Lindow Street, Lancaster, Lancashire, LA1 1SB 22/02/2024 22/02/2029 5 Bedrooms 5","postcode":"LA1 1SB","max_occupants":2,"ward":"Castle","lat":54.045384,"lng":-2.802456,"lsoa":"Lancaster 014F"},{"address":"2 New Road, Lancaster, Lancashire, LA1 1EZ 28/03/2019 28/03/2024 5 Bedrooms 5","postcode":"LA1 1EZ","max_occupants":2,"ward":"Castle","lat":54.050239,"lng":-2.802152,"lsoa":"Lancaster 014E"},{"address":"2 Portland Street, Lancaster, Lancashire, LA1 1SZ 31/05/2024 31/05/2029 5 Bedrooms 6","postcode":"LA1 1SZ","max_occupants":2,"ward":"Castle","lat":54.044662,"lng":-2.80293,"lsoa":"Lancaster 014F"},{"address":"2 River Street, Lancaster, Lancashire, LA1 1AD 29/11/2021 29/11/2026 6 Bedrooms 6","postcode":"LA1 1AD","max_occupants":2,"ward":"Castle","lat":54.054251,"lng":-2.807103,"lsoa":"Lancaster 014C"},{"address":"2 Rydal Road, Lancaster, Lancashire, LA1 3PT 28/01/2024 28/01/2029 6 Bedrooms 7","postcode":"LA1 3PT","max_occupants":2,"ward":"Bulk","lat":54.048958,"lng":-2.790657,"lsoa":"Lancaster 013C"},{"address":"2 Villas Court, Lancaster, Lancashire, LA1 1TR 30/04/2021 30/04/2026 6 Bedrooms 6","postcode":"LA1 1TR","max_occupants":2,"ward":"Castle","lat":54.044465,"lng":-2.805477,"lsoa":"Lancaster 017C"},{"address":"Flat 1 First Floor, 3-5 Damside Street, Lancaster, Lancashire, LA1 1PD 13/05/2020 13/05/2025 5 Bedrooms 5","postcode":"LA1 1PD","max_occupants":3,"ward":"Castle","lat":54.049884,"lng":-2.800129,"lsoa":"Lancaster 014E"},{"address":"Flat 2 Second Floor, 3-5 Damside Street, Lancaster, Lancashire, LA1 1PD 09/12/2020 09/12/2025 5 Bedrooms 5","postcode":"LA1 1PD","max_occupants":2,"ward":"Castle","lat":54.049884,"lng":-2.800129,"lsoa":"Lancaster 014E"},{"address":"30 Blades Street, Lancaster, Lancashire, LA1 1TT 28/12/2022 28/12/2027 7 Bedrooms 7","postcode":"LA1 1TT","max_occupants":30,"ward":"Castle","lat":54.046699,"lng":-2.805979,"lsoa":"Lancaster 017C"},{"address":"30 Brunton Road, Lancaster, Lancashire, LA1 4UQ 28/11/2022 28/11/2027 7 Bedrooms 7","postcode":"LA1 4UQ","max_occupants":30,"ward":"Scotforth West","lat":54.038003,"lng":-2.797259,"lsoa":"Lancaster 017E"},{"address":"30 Coulston Road, Lancaster, Lancashire, LA1 3AE 05/01/2021 05/01/2026 6 Bedrooms 6","postcode":"LA1 3AE","max_occupants":30,"ward":"Bowerham","lat":54.038065,"lng":-2.787946,"lsoa":"Lancaster 015E"},{"address":"30 Dallas Road, Lancaster, Lancashire, LA1 1TW 24/04/2024 24/04/2029 6 Bedrooms 6","postcode":"LA1 1TW","max_occupants":30,"ward":"Castle","lat":54.046301,"lng":-2.805009,"lsoa":"Lancaster 017C"},{"address":"30 Dumbarton Road, Lancaster, Lancashire, LA1 3BX 21/12/2020 21/12/2025 6 Bedrooms 6","postcode":"LA1 3BX","max_occupants":30,"ward":"John O'Gaunt","lat":54.045878,"lng":-2.792935,"lsoa":"Lancaster 015B"},{"address":"30 Golgotha Road, Lancaster, Lancashire, LA1 3AA 08/11/2021 08/11/2026 5 Bedrooms 5","postcode":"LA1 3AA","max_occupants":30,"ward":"Bowerham","lat":54.038592,"lng":-2.788368,"lsoa":"Lancaster 015E"},{"address":"30 Slaidburn Drive, Lancaster, Lancashire, LA1 4QX 07/02/2024 07/02/2029 5 Bedrooms 5","postcode":"LA1 4QX","max_occupants":30,"ward":"Scotforth East","lat":54.025495,"lng":-2.78867,"lsoa":"Lancaster 018C"},{"address":"31 Dale Street, Lancaster, Lancashire, LA1 3AP 28/10/2022 28/10/2027 5 Bedrooms 6","postcode":"LA1 3AP","max_occupants":31,"ward":"John O'Gaunt","lat":54.043492,"lng":-2.793546,"lsoa":"Lancaster 015E"},{"address":"31 Gladstone Terrace, Lancaster, Lancashire, LA1 1DW 17/04/2023 17/04/2028 5 Bedrooms 5","postcode":"LA1 1DW","max_occupants":31,"ward":"Bulk","lat":54.052579,"lng":-2.793567,"lsoa":"Lancaster 014A"},{"address":"31 Lune Street, Lancaster, Lancashire, LA1 2AJ 26/01/2022 26/01/2027 5 Bedrooms 5","postcode":"LA1 2AJ","max_occupants":31,"ward":"Skerton","lat":54.054239,"lng":-2.79948,"lsoa":"Lancaster 011C"},{"address":"31 Parkfield Drive, Lancaster, Lancashire, LA1 4BT 03/01/2024 03/01/2029 5 Bedrooms 4","postcode":"LA1 4BT","max_occupants":31,"ward":"Bowerham","lat":54.03962,"lng":-2.793427,"lsoa":"Lancaster 015D"},{"address":"31 Regent Street, Lancaster, Lancashire, LA1 1SQ 28/10/2022 28/10/2027 5 Bedrooms 7","postcode":"LA1 1SQ","max_occupants":31,"ward":"Castle","lat":54.043781,"lng":-2.804227,"lsoa":"Lancaster 014F"},{"address":"31 South Road, Lancaster, Lancashire, LA1 4XJ 20/09/2024 20/09/2029 6 Bedrooms 6","postcode":"LA1 4XJ","max_occupants":31,"ward":"Castle","lat":54.043368,"lng":-2.797484,"lsoa":"Lancaster 014F"},{"address":"31 Wingate Saul Road, Lancaster, Lancashire, LA1 5DW 28/11/2019 28/11/2024 5 Bedrooms 5","postcode":"LA1 5DW","max_occupants":31,"ward":"Marsh","lat":54.046516,"lng":-2.809198,"lsoa":"Lancaster 017C"},{"address":"32 Balmoral Road, Lancaster, Lancashire, LA1 3BU 04/01/2023 04/01/2028 6 Bedrooms 6","postcode":"LA1 3BU","max_occupants":32,"ward":"John O'Gaunt","lat":54.046267,"lng":-2.791263,"lsoa":"Lancaster 015B"},{"address":"32 Blades Street, Lancaster, Lancashire, LA1 1TT 14/11/2022 14/11/2027 5 Bedrooms 5","postcode":"LA1 1TT","max_occupants":32,"ward":"Castle","lat":54.046699,"lng":-2.805979,"lsoa":"Lancaster 017C"},{"address":"33 Coulston Road, Lancaster, Lancashire, LA1 3AD 13/05/2020 13/05/2025 5 Bedrooms 5","postcode":"LA1 3AD","max_occupants":33,"ward":"Bowerham","lat":54.038397,"lng":-2.788059,"lsoa":"Lancaster 015E"},{"address":"33 Golgotha Road, Lancaster, Lancashire, LA1 3AA 15/12/2021 15/12/2026 5 Bedrooms 5","postcode":"LA1 3AA","max_occupants":33,"ward":"Bowerham","lat":54.038592,"lng":-2.788368,"lsoa":"Lancaster 015E"},{"address":"33 Lune Street, Lancaster, Lancashire, LA1 2AJ 26/04/2024 26/04/2029 5 Bedrooms 5","postcode":"LA1 2AJ","max_occupants":33,"ward":"Skerton","lat":54.054239,"lng":-2.79948,"lsoa":"Lancaster 011C"},{"address":"33 Regent Street, Lancaster, Lancashire, LA1 1SQ 26/04/2024 26/04/2029 9 Bedrooms 9","postcode":"LA1 1SQ","max_occupants":33,"ward":"Castle","lat":54.043781,"lng":-2.804227,"lsoa":"Lancaster 014F"},{"address":"34 Hope Street, Lancaster, Lancashire, LA1 3BQ 29/07/2021 29/07/2026 5 Bedrooms 5","postcode":"LA1 3BQ","max_occupants":34,"ward":"John O'Gaunt","lat":54.043356,"lng":-2.792398,"lsoa":"Lancaster 015E"},{"address":"34 West Road, Lancaster, Lancashire, LA1 5PE 22/10/2021 22/10/2026 5 Bedrooms 5","postcode":"LA1 5PE","max_occupants":34,"ward":"Marsh","lat":54.049911,"lng":-2.810914,"lsoa":"Lancaster 017B"},{"address":"35 Lune Street, Lancaster, Lancashire, LA1 2AJ 19/03/2024 19/03/2029 5 Bedrooms 5","postcode":"LA1 2AJ","max_occupants":35,"ward":"Skerton","lat":54.054239,"lng":-2.79948,"lsoa":"Lancaster 011C"},{"address":"35 St Oswald Street, Lancaster, Lancashire, LA1 3AS 23/10/2020 23/10/2025 6 Bedrooms 6","postcode":"LA1 3AS","max_occupants":35,"ward":"John O'Gaunt","lat":54.042176,"lng":-2.791414,"lsoa":"Lancaster 015E"},{"address":"35 Wingate Saul Road, Lancaster, Lancashire, LA1 5DW 07/08/2022 07/08/2027 5 Bedrooms 5","postcode":"LA1 5DW","max_occupants":35,"ward":"Marsh","lat":54.046516,"lng":-2.809198,"lsoa":"Lancaster 017C"},{"address":"Flat 9, 36 Dumbarton Road, Lancaster, Lancashire, LA1 1BX 10/10/2022 10/10/2027 7 Bedrooms 7","postcode":"LA1 1BX","max_occupants":9,"ward":"Castle","lat":54.045281,"lng":-2.800407,"lsoa":"Lancaster 014E"},{"address":"Flat 10, 36 Dumbarton Road, Lancaster, Lancashire, LA1 1BX 10/10/2022 10/10/2027 6 Bedrooms 6","postcode":"LA1 1BX","max_occupants":10,"ward":"Castle","lat":54.045281,"lng":-2.800407,"lsoa":"Lancaster 014E"},{"address":"36 Long Marsh Lane, Lancaster, Lancashire, LA1 5QX 04/01/2022 04/01/2027 5 Bedrooms 5","postcode":"LA1 5QX","max_occupants":36,"ward":"Marsh","lat":54.0522,"lng":-2.811355,"lsoa":"Lancaster 014C"},{"address":"36 Slaidburn Drive, Lancaster, Lancashire, LA1 4QX 21/05/2024 21/05/2029 5 Bedrooms 5","postcode":"LA1 4QX","max_occupants":36,"ward":"Scotforth East","lat":54.025495,"lng":-2.78867,"lsoa":"Lancaster 018C"},{"address":"37 Dale Street, Lancaster, Lancashire, LA1 3AP 06/03/2023 06/03/2028 6 Bedrooms 6","postcode":"LA1 3AP","max_occupants":37,"ward":"John O'Gaunt","lat":54.043492,"lng":-2.793546,"lsoa":"Lancaster 015E"},{"address":"37 Golgotha Road, Lancaster, Lancashire, LA1 3AA 13/05/2020 13/05/2025 5 Bedrooms 5","postcode":"LA1 3AA","max_occupants":37,"ward":"Bowerham","lat":54.038592,"lng":-2.788368,"lsoa":"Lancaster 015E"},{"address":"37 Kirkes Road, Lancaster, Lancashire, LA1 3DW 03/04/2023 03/04/2028 5 Bedrooms 5","postcode":"LA1 3DW","max_occupants":37,"ward":"John O'Gaunt","lat":54.045566,"lng":-2.788546,"lsoa":"Lancaster 015B"},{"address":"37 Regent Street, Lancaster, Lancashire, LA1 1SQ 08/03/2021 08/03/2026 6 Bedrooms 6","postcode":"LA1 1SQ","max_occupants":37,"ward":"Castle","lat":54.043781,"lng":-2.804227,"lsoa":"Lancaster 014F"},{"address":"37 St Oswald Street, Lancaster, Lancashire, LA1 3AS 06/05/2020 06/05/2025 5 Bedrooms 5","postcode":"LA1 3AS","max_occupants":37,"ward":"John O'Gaunt","lat":54.042176,"lng":-2.791414,"lsoa":"Lancaster 015E"},{"address":"Flat First Floor - Flat 2, 38-42 North Road, Lancaster, Lancashire, LA1 1NY 16/02/2024 16/02/2029 5 Bedrooms 5","postcode":"LA1 1NY","max_occupants":2,"ward":"Castle","lat":54.05058,"lng":-2.798264,"lsoa":"Lancaster 014A"},{"address":"Flat Second Floor - Flat 3, 38-42 North Road, Lancaster, Lancashire, LA1 1NY 16/02/2024 16/02/2029 5 Bedrooms 5","postcode":"LA1 1NY","max_occupants":3,"ward":"Castle","lat":54.05058,"lng":-2.798264,"lsoa":"Lancaster 014A"},{"address":"38 Cavendish Street, Lancaster, Lancashire, LA1 5QA 29/11/2022 29/11/2027 5 Bedrooms 5","postcode":"LA1 5QA","max_occupants":38,"ward":"Marsh","lat":54.047428,"lng":-2.816593,"lsoa":"Lancaster 017A"},{"address":"38 Dallas Road, Lancaster, Lancashire, LA1 1TW 21/10/2022 21/10/2027 7 Bedrooms 7","postcode":"LA1 1TW","max_occupants":38,"ward":"Castle","lat":54.046301,"lng":-2.805009,"lsoa":"Lancaster 017C"},{"address":"39 Moor Gate, Lancaster, Lancashire, LA1 3PY 29/06/2022 29/06/2027 6 Bedrooms 6","postcode":"LA1 3PY","max_occupants":39,"ward":"Bulk","lat":54.048411,"lng":-2.791792,"lsoa":"Lancaster 014B"},{"address":"3 Dye House Lane, Lancaster, Lancashire, LA1 1EL 01/11/2021 01/11/2026 6 Bedrooms 6","postcode":"LA1 1EL","max_occupants":3,"ward":"Castle","lat":54.050297,"lng":-2.800183,"lsoa":"Lancaster 014A"},{"address":"3 Gladstone Terrace, Lancaster, Lancashire, LA1 1DW 18/06/2021 18/06/2026 5 Bedrooms 5","postcode":"LA1 1DW","max_occupants":3,"ward":"Bulk","lat":54.052579,"lng":-2.793567,"lsoa":"Lancaster 014A"},{"address":"3 Golgotha Road, Lancaster, Lancashire, LA1 3AA 03/12/2021 03/12/2026 6 Bedrooms 6","postcode":"LA1 3AA","max_occupants":3,"ward":"Bowerham","lat":54.038592,"lng":-2.788368,"lsoa":"Lancaster 015E"},{"address":"3 Gregson Road, Lancaster, Lancashire, LA1 3DJ 06/05/2021 06/05/2026 9 Bedrooms 9","postcode":"LA1 3DJ","max_occupants":3,"ward":"John O'Gaunt","lat":54.046222,"lng":-2.789811,"lsoa":"Lancaster 015B"},{"address":"3 Havelock Street, Lancaster, Lancashire, LA1 4AD 16/02/2024 16/02/2029 5 Bedrooms 5","postcode":"LA1 4AD","max_occupants":3,"ward":"Bowerham","lat":54.039512,"lng":-2.789256,"lsoa":"Lancaster 015E"},{"address":"Flat 1, 3 Queen Street, Lancaster, Lancashire, LA1 1RS 22/02/2024 22/02/2029 5 Bedrooms 5","postcode":"LA1 1RS","max_occupants":3,"ward":"Castle","lat":54.045606,"lng":-2.801483,"lsoa":"Lancaster 014E"},{"address":"3 Ridge Lane, Lancaster, Lancashire, LA1 1EB 17/06/2024 17/06/2029 7 Bedrooms 7","postcode":"LA1 1EB","max_occupants":3,"ward":"Bulk","lat":54.053238,"lng":-2.791838,"lsoa":"Lancaster 014A"},{"address":"3 St Oswald Street, Lancaster, Lancashire, LA1 3AS 07/05/2021 07/05/2026 5 Bedrooms 5","postcode":"LA1 3AS","max_occupants":3,"ward":"John O'Gaunt","lat":54.042176,"lng":-2.791414,"lsoa":"Lancaster 015E"},{"address":"3 Ulster Road, Lancaster, Lancashire, LA1 4AH 09/09/2022 09/09/2027 5 Bedrooms 5","postcode":"LA1 4AH","max_occupants":3,"ward":"Bowerham","lat":54.037905,"lng":-2.787576,"lsoa":"Lancaster 013D"},{"address":"3 Villas Court, Lancaster, Lancashire, LA1 1TR 24/08/2021 24/08/2026 6 Bedrooms 6","postcode":"LA1 1TR","max_occupants":3,"ward":"Castle","lat":54.044465,"lng":-2.805477,"lsoa":"Lancaster 017C"},{"address":"4-6 Ashfield Avenue, Lancaster, Lancashire, LA1 5EB 03/11/2023 03/11/2028 7 Bedrooms 7","postcode":"LA1 5EB","max_occupants":4,"ward":"Marsh","lat":54.047,"lng":-2.810704,"lsoa":"Lancaster 017C"},{"address":"4-6 Cheapside, Lancaster, Lancashire, LA1 1LZ 13/07/2021 13/07/2026 5 Bedrooms 5","postcode":"LA1 1LZ","max_occupants":4,"ward":"Castle","lat":54.049157,"lng":-2.800054,"lsoa":"Lancaster 014E"},{"address":"40 Dallas Road, Lancaster, Lancashire, LA1 1TW 06/02/2023 06/02/2028 6 Bedrooms 6","postcode":"LA1 1TW","max_occupants":40,"ward":"Castle","lat":54.046301,"lng":-2.805009,"lsoa":"Lancaster 017C"},{"address":"40 Dale Street, Lancaster, Lancashire, LA1 3AW 08/07/2024 08/07/2029 6 Bedrooms 6","postcode":"LA1 3AW","max_occupants":40,"ward":"John O'Gaunt","lat":54.043094,"lng":-2.793966,"lsoa":"Lancaster 015E"},{"address":"40 King Street, Lancaster, Lancashire, LA1 1RE 31/07/2024 31/07/2029 5 Bedrooms 5","postcode":"LA1 1RE","max_occupants":40,"ward":"Castle","lat":54.047061,"lng":-2.801648,"lsoa":"Lancaster 014E"},{"address":"41 Bowerham Road, Lancaster, Lancashire, LA1 4AE 14/08/2020 14/08/2025 5 Bedrooms 5","postcode":"LA1 4AE","max_occupants":41,"ward":"Bowerham","lat":54.038978,"lng":-2.789826,"lsoa":"Lancaster 015E"},{"address":"41 St Oswald Street, Lancaster, Lancashire, LA1 3AS 06/05/2020 06/05/2025 5 Bedrooms 5","postcode":"LA1 3AS","max_occupants":41,"ward":"John O'Gaunt","lat":54.042176,"lng":-2.791414,"lsoa":"Lancaster 015E"},{"address":"41 Ullswater Road, Lancaster, Lancashire, LA1 3PP 07/01/2020 07/01/2025 5 Bedrooms 5","postcode":"LA1 3PP","max_occupants":41,"ward":"Bulk","lat":54.050667,"lng":-2.790552,"lsoa":"Lancaster 013C"},{"address":"42 Coulston Road, Lancaster, Lancashire, LA1 3AE 29/11/2021 29/11/2026 5 Bedrooms 5","postcode":"LA1 3AE","max_occupants":42,"ward":"Bowerham","lat":54.038065,"lng":-2.787946,"lsoa":"Lancaster 015E"},{"address":"42 Dale Street, Lancaster, Lancashire, LA1 3AW 17/06/2024 17/06/2029 6 Bedrooms 6","postcode":"LA1 3AW","max_occupants":42,"ward":"John O'Gaunt","lat":54.043094,"lng":-2.793966,"lsoa":"Lancaster 015E"},{"address":"42 King Street, Lancaster, Lancashire, LA1 1RE 31/07/2024 31/07/2029 0 Bedrooms 6","postcode":"LA1 1RE","max_occupants":42,"ward":"Castle","lat":54.047061,"lng":-2.801648,"lsoa":"Lancaster 014E"},{"address":"42 Owen Road, Lancaster, Lancashire, LA1 2BN 21/11/2022 21/11/2027 6 Bedrooms 6","postcode":"LA1 2BN","max_occupants":42,"ward":"Skerton","lat":54.058609,"lng":-2.80045,"lsoa":"Lancaster 011B"},{"address":"43 Broadway, Lancaster, Lancashire, LA1 2BX 07/03/2022 07/03/2027 5 Bedrooms 5","postcode":"LA1 2BX","max_occupants":43,"ward":"Skerton","lat":54.059595,"lng":-2.798116,"lsoa":"Lancaster 011C"},{"address":"43 Golgotha Road, Lancaster, Lancashire, LA1 3AA 06/05/2020 06/05/2025 6 Bedrooms 6","postcode":"LA1 3AA","max_occupants":43,"ward":"Bowerham","lat":54.038592,"lng":-2.788368,"lsoa":"Lancaster 015E"},{"address":"43 Lune Street, Lancaster, Lancashire, LA1 2AJ 15/10/2019 15/10/2024 5 Bedrooms 5","postcode":"LA1 2AJ","max_occupants":43,"ward":"Skerton","lat":54.054239,"lng":-2.79948,"lsoa":"Lancaster 011C"},{"address":"43 Ullswater Road, Lancaster, Lancashire, LA1 3PS 13/07/2023 13/07/2028 5 Bedrooms 5","postcode":"LA1 3PS","max_occupants":43,"ward":"Bulk","lat":54.049586,"lng":-2.790913,"lsoa":"Lancaster 014B"},{"address":"44 Dale Street, Lancaster, Lancashire, LA1 3AW 16/07/2024 16/07/2029 6 Bedrooms 6","postcode":"LA1 3AW","max_occupants":44,"ward":"John O'Gaunt","lat":54.043094,"lng":-2.793966,"lsoa":"Lancaster 015E"},{"address":"44 Owen Road, Lancaster, Lancashire, LA1 2BN 21/11/2022 21/11/2027 6 Bedrooms 6","postcode":"LA1 2BN","max_occupants":44,"ward":"Skerton","lat":54.058609,"lng":-2.80045,"lsoa":"Lancaster 011B"},{"address":"44 West Road, Lancaster, Lancashire, LA1 5NU 13/08/2021 13/08/2026 5 Bedrooms 5","postcode":"LA1 5NU","max_occupants":44,"ward":"Marsh","lat":54.049208,"lng":-2.809907,"lsoa":"Lancaster 017B"},{"address":"45 Golgotha Road, Lancaster, Lancashire, LA1 3AA 11/03/2024 11/03/2029 6 Bedrooms 6","postcode":"LA1 3AA","max_occupants":45,"ward":"Bowerham","lat":54.038592,"lng":-2.788368,"lsoa":"Lancaster 015E"},{"address":"45 Lune Street, Lancaster, Lancashire, LA1 2AJ 12/05/2023 12/05/2028 5 Bedrooms 5","postcode":"LA1 2AJ","max_occupants":45,"ward":"Skerton","lat":54.054239,"lng":-2.79948,"lsoa":"Lancaster 011C"},{"address":"45 Moor Gate, Lancaster, Lancashire, LA1 3PY 08/06/2021 08/06/2026 6 Bedrooms 6","postcode":"LA1 3PY","max_occupants":45,"ward":"Bulk","lat":54.048411,"lng":-2.791792,"lsoa":"Lancaster 014B"},{"address":"45 Regent Street, Lancaster, Lancashire, LA1 1SQ 07/10/2022 07/10/2027 5 Bedrooms 5","postcode":"LA1 1SQ","max_occupants":45,"ward":"Castle","lat":54.043781,"lng":-2.804227,"lsoa":"Lancaster 014F"},{"address":"45 Westbourne Road, Lancaster, Lancashire, LA1 5DX 31/05/2023 31/05/2028 6 Bedrooms 6","postcode":"LA1 5DX","max_occupants":45,"ward":"Marsh","lat":54.047228,"lng":-2.811533,"lsoa":"Lancaster 017C"},{"address":"46 Coulston Road, Lancaster, Lancashire, LA1 3AE 29/11/2021 29/11/2026 5 Bedrooms 5","postcode":"LA1 3AE","max_occupants":46,"ward":"Bowerham","lat":54.038065,"lng":-2.787946,"lsoa":"Lancaster 015E"},{"address":"46 Hope Street, Lancaster, Lancashire, LA1 3BQ 29/07/2021 29/07/2026 5 Bedrooms 5","postcode":"LA1 3BQ","max_occupants":46,"ward":"John O'Gaunt","lat":54.043356,"lng":-2.792398,"lsoa":"Lancaster 015E"},{"address":"46 Owen Road, Lancaster, Lancashire, LA1 2BN 01/03/2023 01/03/2028 5 Bedrooms 5","postcode":"LA1 2BN","max_occupants":46,"ward":"Skerton","lat":54.058609,"lng":-2.80045,"lsoa":"Lancaster 011B"},{"address":"46 Slaidburn Drive, Lancaster, Lancashire, LA1 4QX 07/02/2019 07/02/2024 6 Bedrooms 6","postcode":"LA1 4QX","max_occupants":46,"ward":"Scotforth East","lat":54.025495,"lng":-2.78867,"lsoa":"Lancaster 018C"},{"address":"46 Ullswater Road, Lancaster, Lancashire, LA1 3PP 06/05/2020 06/05/2025 5 Bedrooms 5","postcode":"LA1 3PP","max_occupants":46,"ward":"Bulk","lat":54.050667,"lng":-2.790552,"lsoa":"Lancaster 013C"},{"address":"47 Golgotha Road, Lancaster, Lancashire, LA1 3AA 23/08/2021 23/08/2026 5 Bedrooms 5","postcode":"LA1 3AA","max_occupants":47,"ward":"Bowerham","lat":54.038592,"lng":-2.788368,"lsoa":"Lancaster 015E"},{"address":"47 Lune Street, Lancaster, Lancashire, LA1 2AJ 30/08/2024 30/08/2029 5 Bedrooms 5","postcode":"LA1 2AJ","max_occupants":47,"ward":"Skerton","lat":54.054239,"lng":-2.79948,"lsoa":"Lancaster 011C"},{"address":"47 South Road, Lancaster, Lancashire, LA1 4XJ 29/04/2020 29/04/2025 8 Bedrooms 8","postcode":"LA1 4XJ","max_occupants":47,"ward":"Castle","lat":54.043368,"lng":-2.797484,"lsoa":"Lancaster 014F"},{"address":"47 St Oswald Street, Lancaster, Lancashire, LA1 3AS 28/10/2022 28/10/2027 5 Bedrooms 5","postcode":"LA1 3AS","max_occupants":47,"ward":"John O'Gaunt","lat":54.042176,"lng":-2.791414,"lsoa":"Lancaster 015E"},{"address":"47 Wingate Saul Road, Lancaster, Lancashire, LA1 5DW 08/11/2021 08/11/2026 5 Bedrooms 5","postcode":"LA1 5DW","max_occupants":47,"ward":"Marsh","lat":54.046516,"lng":-2.809198,"lsoa":"Lancaster 017C"},{"address":"48 Coulston Road, Lancaster, Lancashire, LA1 3AE 03/12/2020 03/12/2025 5 Bedrooms 5","postcode":"LA1 3AE","max_occupants":48,"ward":"Bowerham","lat":54.038065,"lng":-2.787946,"lsoa":"Lancaster 015E"},{"address":"48 Dale Street, Lancaster, Lancashire, LA1 3AW 28/11/2019 28/11/2024 6 Bedrooms 6","postcode":"LA1 3AW","max_occupants":48,"ward":"John O'Gaunt","lat":54.043094,"lng":-2.793966,"lsoa":"Lancaster 015E"},{"address":"48 King Street, Lancaster, Lancashire, LA1 1RE 03/07/2024 03/07/2029 5 Bedrooms 5","postcode":"LA1 1RE","max_occupants":48,"ward":"Castle","lat":54.047061,"lng":-2.801648,"lsoa":"Lancaster 014E"},{"address":"48 Portland Street, Lancaster, Lancashire, LA1 1SY 28/10/2022 28/10/2027 6 Bedrooms 6","postcode":"LA1 1SY","max_occupants":48,"ward":"Castle","lat":54.043949,"lng":-2.803375,"lsoa":"Lancaster 014F"},{"address":"49 Golgotha Road, Lancaster, Lancashire, LA1 3AA 16/02/2024 16/02/2029 5 Bedrooms 5","postcode":"LA1 3AA","max_occupants":49,"ward":"Bowerham","lat":54.038592,"lng":-2.788368,"lsoa":"Lancaster 015E"},{"address":"49 South Road, Lancaster, Lancashire, LA1 4XJ 28/10/2022 28/10/2027 5 Bedrooms 5","postcode":"LA1 4XJ","max_occupants":49,"ward":"Castle","lat":54.043368,"lng":-2.797484,"lsoa":"Lancaster 014F"},{"address":"49 St Oswald Street, Lancaster, Lancashire, LA1 3AS 29/05/2023 29/05/2028 5 Bedrooms 5","postcode":"LA1 3AS","max_occupants":49,"ward":"John O'Gaunt","lat":54.042176,"lng":-2.791414,"lsoa":"Lancaster 015E"},{"address":"4 Blades Street, Lancaster, Lancashire, LA1 1TT 14/05/2021 14/05/2026 5 Bedrooms 5","postcode":"LA1 1TT","max_occupants":4,"ward":"Castle","lat":54.046699,"lng":-2.805979,"lsoa":"Lancaster 017C"},{"address":"4 Briery Street, Lancaster, Lancashire, LA1 5RD 13/11/2020 13/11/2025 5 Bedrooms 5","postcode":"LA1 5RD","max_occupants":4,"ward":"Marsh","lat":54.052056,"lng":-2.812712,"lsoa":"Lancaster 014C"},{"address":"4 Golgotha Road, Lancaster, Lancashire, LA1 3AA 07/02/2024 07/02/2029 7 Bedrooms 7","postcode":"LA1 3AA","max_occupants":4,"ward":"Bowerham","lat":54.038592,"lng":-2.788368,"lsoa":"Lancaster 015E"},{"address":"4 Gregson Road, Lancaster, Lancashire, LA1 3DJ 28/10/2022 28/10/2027 5 Bedrooms 6","postcode":"LA1 3DJ","max_occupants":4,"ward":"John O'Gaunt","lat":54.046222,"lng":-2.789811,"lsoa":"Lancaster 015B"},{"address":"4 Hastings Road, Lancaster, Lancashire, LA1 4TH 18/10/2024 18/10/2029 5 Bedrooms 5","postcode":"LA1 4TH","max_occupants":4,"ward":"Scotforth West","lat":54.035752,"lng":-2.79662,"lsoa":"Lancaster 017E"},{"address":"4 Hubert Place, Lancaster, Lancashire, LA1 5PF 25/10/2023 25/10/2028 6 Bedrooms 6","postcode":"LA1 5PF","max_occupants":4,"ward":"Marsh","lat":54.051152,"lng":-2.812099,"lsoa":"Lancaster 014C"},{"address":"4 Lindow Street, Lancaster, Lancashire, LA1 1SB 12/03/2021 12/03/2026 6 Bedrooms 6","postcode":"LA1 1SB","max_occupants":4,"ward":"Castle","lat":54.045384,"lng":-2.802456,"lsoa":"Lancaster 014F"},{"address":"4 Milking Stile Lane, Lancaster, Lancashire, LA1 5QB 19/11/2020 19/11/2025 6 Bedrooms 6","postcode":"LA1 5QB","max_occupants":4,"ward":"Marsh","lat":54.0478,"lng":-2.81605,"lsoa":"Lancaster 017A"},{"address":"4 Portland Street, Lancaster, Lancashire, LA1 1SZ 02/11/2023 02/11/2028 6 Bedrooms 6","postcode":"LA1 1SZ","max_occupants":4,"ward":"Castle","lat":54.044662,"lng":-2.80293,"lsoa":"Lancaster 014F"},{"address":"4 Ridge Street, Lancaster, Lancashire, LA1 1EA 28/10/2022 28/10/2027 5 Bedrooms 5","postcode":"LA1 1EA","max_occupants":4,"ward":"Bulk","lat":54.053143,"lng":-2.792539,"lsoa":"Lancaster 014A"},{"address":"4 Sibsey Street, Lancaster, Lancashire, LA1 5DE 22/05/2023 22/05/2028 7 Bedrooms 7","postcode":"LA1 5DE","max_occupants":4,"ward":"Marsh","lat":54.047635,"lng":-2.808563,"lsoa":"Lancaster 014C"},{"address":"4 South Road, Lancaster, Lancashire, LA1 4XD 07/08/2022 07/08/2027 8 Bedrooms 8","postcode":"LA1 4XD","max_occupants":4,"ward":"Castle","lat":54.042462,"lng":-2.797161,"lsoa":"Lancaster 014F"},{"address":"4 Ullswater Road, Lancaster, Lancashire, LA1 3PP 12/10/2022 12/10/2027 6 Bedrooms 6","postcode":"LA1 3PP","max_occupants":4,"ward":"Bulk","lat":54.050667,"lng":-2.790552,"lsoa":"Lancaster 013C"},{"address":"4 Villas Court, Lancaster, Lancashire, LA1 1TR 05/06/2024 05/06/2029 5 Bedrooms 6","postcode":"LA1 1TR","max_occupants":4,"ward":"Castle","lat":54.044465,"lng":-2.805477,"lsoa":"Lancaster 017C"},{"address":"4 Westbourne Road, Lancaster, Lancashire, LA1 5DB 06/05/2020 06/05/2025 9 Bedrooms 9","postcode":"LA1 5DB","max_occupants":4,"ward":"Marsh","lat":54.048107,"lng":-2.809152,"lsoa":"Lancaster 014C"},{"address":"4 West Road, Lancaster, Lancashire, LA1 5PG 19/11/2020 19/11/2025 6 Bedrooms 6","postcode":"LA1 5PG","max_occupants":4,"ward":"Marsh","lat":54.050581,"lng":-2.81279,"lsoa":"Lancaster 014C"},{"address":"Flat 1, 5-7 Sir Simons Arcade, Lancaster, Lancashire, LA1 1JL 17/06/2024 17/06/2029 8 Bedrooms 8","postcode":"LA1 1JL","max_occupants":5,"ward":"Castle","lat":54.048369,"lng":-2.802193,"lsoa":"Lancaster 014E"},{"address":"Flat 2, 5-7 Sir Simons Arcade, Lancaster, Lancashire, LA1 1JL 17/06/2024 17/06/2029 8 Bedrooms 8","postcode":"LA1 1JL","max_occupants":2,"ward":"Castle","lat":54.048369,"lng":-2.802193,"lsoa":"Lancaster 014E"},{"address":"50a Church Street, Lancaster, Lancashire, LA1 1LH 13/05/2020 13/05/2025 5 Bedrooms 5","postcode":"LA1 1LH","max_occupants":13,"ward":"Castle","lat":54.049833,"lng":-2.80103,"lsoa":"Lancaster 014E"},{"address":"50 Regent Street, Lancaster, Lancashire, LA1 1SQ 29/11/2022 29/11/2027 10 Bedrooms 10","postcode":"LA1 1SQ","max_occupants":50,"ward":"Castle","lat":54.043781,"lng":-2.804227,"lsoa":"Lancaster 014F"},{"address":"51 Blades Street, Lancaster, Lancashire, LA1 1TS 07/05/2021 07/05/2026 6 Bedrooms 6","postcode":"LA1 1TS","max_occupants":51,"ward":"Castle","lat":54.045828,"lng":-2.805885,"lsoa":"Lancaster 017C"},{"address":"51 Dale Street, Lancaster, Lancashire, LA1 3AP 12/12/2021 12/12/2026 6 Bedrooms 6","postcode":"LA1 3AP","max_occupants":51,"ward":"John O'Gaunt","lat":54.043492,"lng":-2.793546,"lsoa":"Lancaster 015E"},{"address":"51 St Oswald Street, Lancaster, Lancashire, LA1 3AS 28/10/2022 28/10/2027 5 Bedrooms 5","postcode":"LA1 3AS","max_occupants":51,"ward":"John O'Gaunt","lat":54.042176,"lng":-2.791414,"lsoa":"Lancaster 015E"},{"address":"52 Balmoral Road, Lancaster, Lancashire, LA1 3BU 29/11/2021 29/11/2026 5 Bedrooms 5","postcode":"LA1 3BU","max_occupants":52,"ward":"John O'Gaunt","lat":54.046267,"lng":-2.791263,"lsoa":"Lancaster 015B"},{"address":"52 Dale Street, Lancaster, Lancashire, LA1 3AW 03/07/2024 03/07/2029 6 Bedrooms 6","postcode":"LA1 3AW","max_occupants":52,"ward":"John O'Gaunt","lat":54.043094,"lng":-2.793966,"lsoa":"Lancaster 015E"},{"address":"52 Dallas Road, Lancaster, Lancashire, LA1 1TW 08/11/2021 08/11/2026 6 Bedrooms 6","postcode":"LA1 1TW","max_occupants":52,"ward":"Castle","lat":54.046301,"lng":-2.805009,"lsoa":"Lancaster 017C"},{"address":"52 Golgotha Road, Lancaster, Lancashire, LA1 3AA 04/02/2019 04/02/2024 5 Bedrooms 5","postcode":"LA1 3AA","max_occupants":52,"ward":"Bowerham","lat":54.038592,"lng":-2.788368,"lsoa":"Lancaster 015E"},{"address":"52 Newsham Road, Lancaster, Lancashire, LA1 4DH 17/10/2022 17/10/2027 5 Bedrooms 5","postcode":"LA1 4DH","max_occupants":52,"ward":"Bowerham","lat":54.036859,"lng":-2.792259,"lsoa":"Lancaster 018D"},{"address":"52 Slaidburn Drive, Lancaster, Lancashire, LA1 4QX 07/02/2019 07/02/2024 6 Bedrooms 6","postcode":"LA1 4QX","max_occupants":52,"ward":"Scotforth East","lat":54.025495,"lng":-2.78867,"lsoa":"Lancaster 018C"},{"address":"52 West Road, Lancaster, Lancashire, LA1 5NU 21/10/2022 21/10/2027 5 Bedrooms 5","postcode":"LA1 5NU","max_occupants":52,"ward":"Marsh","lat":54.049208,"lng":-2.809907,"lsoa":"Lancaster 017B"},{"address":"53 Clarence Street, Lancaster, Lancashire, LA1 3BB 25/11/2020 25/11/2025 5 Bedrooms 0","postcode":"LA1 3BB","max_occupants":53,"ward":"John O'Gaunt","lat":54.043416,"lng":-2.790155,"lsoa":"Lancaster 015E"},{"address":"53 Dale Street, Lancaster, Lancashire, LA1 3AP 13/05/2020 13/05/2025 5 Bedrooms 5","postcode":"LA1 3AP","max_occupants":53,"ward":"John O'Gaunt","lat":54.043492,"lng":-2.793546,"lsoa":"Lancaster 015E"},{"address":"53 Golgotha Road, Lancaster, Lancashire, LA1 3AA 28/10/2022 28/10/2027 6 Bedrooms 6","postcode":"LA1 3AA","max_occupants":53,"ward":"Bowerham","lat":54.038592,"lng":-2.788368,"lsoa":"Lancaster 015E"},{"address":"53 Lune Street, Lancaster, Lancashire, LA1 2AJ 25/11/2022 25/11/2027 5 Bedrooms 5","postcode":"LA1 2AJ","max_occupants":53,"ward":"Skerton","lat":54.054239,"lng":-2.79948,"lsoa":"Lancaster 011C"},{"address":"53 St Oswald Street, Lancaster, Lancashire, LA1 3AS 11/03/2024 11/03/2029 5 Bedrooms 5","postcode":"LA1 3AS","max_occupants":53,"ward":"John O'Gaunt","lat":54.042176,"lng":-2.791414,"lsoa":"Lancaster 015E"},{"address":"54 Dale Street, Lancaster, Lancashire, LA1 3AW 07/07/2024 07/07/2029 6 Bedrooms 6","postcode":"LA1 3AW","max_occupants":54,"ward":"John O'Gaunt","lat":54.043094,"lng":-2.793966,"lsoa":"Lancaster 015E"},{"address":"55 Coulston Road, Lancaster, Lancashire, LA1 3AD 26/02/2024 26/02/2029 5 Bedrooms 5","postcode":"LA1 3AD","max_occupants":55,"ward":"Bowerham","lat":54.038397,"lng":-2.788059,"lsoa":"Lancaster 015E"},{"address":"55 Lune Street, Lancaster, Lancashire, LA1 2AJ 06/05/2020 06/05/2025 5 Bedrooms 5","postcode":"LA1 2AJ","max_occupants":55,"ward":"Skerton","lat":54.054239,"lng":-2.79948,"lsoa":"Lancaster 011C"},{"address":"55 Regent Street, Lancaster, Lancashire, LA1 1SH 31/05/2023 31/05/2028 5 Bedrooms 5","postcode":"LA1 1SH","max_occupants":55,"ward":"Castle","lat":54.042927,"lng":-2.804287,"lsoa":"Lancaster 014F"},{"address":"55 St Oswald Street, Lancaster, Lancashire, LA1 3AS 11/03/2024 11/03/2029 5 Bedrooms 5","postcode":"LA1 3AS","max_occupants":55,"ward":"John O'Gaunt","lat":54.042176,"lng":-2.791414,"lsoa":"Lancaster 015E"},{"address":"56 Aldcliffe Road, Lancaster, Lancashire, LA1 1ST 06/01/2022 06/01/2027 8 Bedrooms 8","postcode":"LA1 1ST","max_occupants":56,"ward":"Castle","lat":54.042968,"lng":-2.803539,"lsoa":"Lancaster 014F"},{"address":"56 Dallas Road, Lancaster, Lancashire, LA1 1TW 06/05/2020 06/05/2025 8 Bedrooms 8","postcode":"LA1 1TW","max_occupants":56,"ward":"Castle","lat":54.046301,"lng":-2.805009,"lsoa":"Lancaster 017C"},{"address":"56 Dale Street, Lancaster, Lancashire, LA1 3AW 28/10/2022 28/10/2027 6 Bedrooms 6","postcode":"LA1 3AW","max_occupants":56,"ward":"John O'Gaunt","lat":54.043094,"lng":-2.793966,"lsoa":"Lancaster 015E"},{"address":"56 Hope Street, Lancaster, Lancashire, LA1 3BQ 03/12/2021 03/12/2026 5 Bedrooms 5","postcode":"LA1 3BQ","max_occupants":56,"ward":"John O'Gaunt","lat":54.043356,"lng":-2.792398,"lsoa":"Lancaster 015E"},{"address":"57 Blades Street, Lancaster, Lancashire, LA1 1TS 31/05/2023 31/05/2028 5 Bedrooms 5","postcode":"LA1 1TS","max_occupants":57,"ward":"Castle","lat":54.045828,"lng":-2.805885,"lsoa":"Lancaster 017C"},{"address":"57 Coulston Road, Lancaster, Lancashire, LA1 3AD 07/02/2019 07/02/2024 5 Bedrooms 5","postcode":"LA1 3AD","max_occupants":57,"ward":"Bowerham","lat":54.038397,"lng":-2.788059,"lsoa":"Lancaster 015E"},{"address":"57 Lune Street, Lancaster, Lancashire, LA1 2AJ 05/10/2023 05/10/2028 5 Bedrooms 5","postcode":"LA1 2AJ","max_occupants":57,"ward":"Skerton","lat":54.054239,"lng":-2.79948,"lsoa":"Lancaster 011C"},{"address":"57 St Oswald Street, Lancaster, Lancashire, LA1 3AS 06/05/2020 06/05/2025 5 Bedrooms 5","postcode":"LA1 3AS","max_occupants":57,"ward":"John O'Gaunt","lat":54.042176,"lng":-2.791414,"lsoa":"Lancaster 015E"},{"address":"58b Penny Street, Lancaster, Lancashire, LA1 1XF 14/06/2024 14/06/2029 6 Bedrooms 6","postcode":"LA1 1XF","max_occupants":14,"ward":"Castle","lat":54.047027,"lng":-2.799998,"lsoa":"Lancaster 014E"},{"address":"58 Dallas Road, Lancaster, Lancashire, LA1 1TW 28/10/2022 28/10/2027 6 Bedrooms 6","postcode":"LA1 1TW","max_occupants":58,"ward":"Castle","lat":54.046301,"lng":-2.805009,"lsoa":"Lancaster 017C"},{"address":"59 Bowerham Road, Lancaster, Lancashire, LA1 4AG 13/05/2020 13/05/2025 6 Bedrooms 6","postcode":"LA1 4AG","max_occupants":59,"ward":"Bowerham","lat":54.038431,"lng":-2.789617,"lsoa":"Lancaster 015E"},{"address":"59 Clarence Street, Lancaster, Lancashire, LA1 3BB 12/10/2021 12/10/2026 5 Bedrooms 5","postcode":"LA1 3BB","max_occupants":59,"ward":"John O'Gaunt","lat":54.043416,"lng":-2.790155,"lsoa":"Lancaster 015E"},{"address":"59 Dale Street, Lancaster, Lancashire, LA1 3AP 30/04/2024 30/04/2029 5 Bedrooms 5","postcode":"LA1 3AP","max_occupants":59,"ward":"John O'Gaunt","lat":54.043492,"lng":-2.793546,"lsoa":"Lancaster 015E"},{"address":"59 Regent Street, Lancaster, Lancashire, LA1 1SH 12/11/2020 12/11/2025 5 Bedrooms 5","postcode":"LA1 1SH","max_occupants":59,"ward":"Castle","lat":54.042927,"lng":-2.804287,"lsoa":"Lancaster 014F"},{"address":"59 St Oswald Street, Lancaster, Lancashire, LA1 3AS 04/09/2023 04/09/2028 5 Bedrooms 5","postcode":"LA1 3AS","max_occupants":59,"ward":"John O'Gaunt","lat":54.042176,"lng":-2.791414,"lsoa":"Lancaster 015E"},{"address":"5 Aldrens Lane, Lancaster, Lancashire, LA1 2DT 30/05/2022 30/05/2027 5 Bedrooms 5","postcode":"LA1 2DT","max_occupants":5,"ward":"Skerton","lat":54.060451,"lng":-2.797919,"lsoa":"Lancaster 011A"},{"address":"Oddfellows Hall, 5a Queen Street, Lancaster, Lancashire, LA1 1RS 09/12/2020 09/12/2025 5 Bedrooms 5","postcode":"LA1 1RS","max_occupants":9,"ward":"Castle","lat":54.045606,"lng":-2.801483,"lsoa":"Lancaster 014E"},{"address":"5 Blades Street, Lancaster, Lancashire, LA1 1TT 31/08/2022 31/08/2027 0 Bedrooms 7","postcode":"LA1 1TT","max_occupants":5,"ward":"Castle","lat":54.046699,"lng":-2.805979,"lsoa":"Lancaster 017C"},{"address":"5 Dale Street, Lancaster, Lancashire, LA1 3AP 23/06/2023 23/06/2028 6 Bedrooms 6","postcode":"LA1 3AP","max_occupants":5,"ward":"John O'Gaunt","lat":54.043492,"lng":-2.793546,"lsoa":"Lancaster 015E"},{"address":"5 Edward Street, Lancaster, Lancashire, LA1 1QH 28/03/2024 28/03/2029 5 Bedrooms 5","postcode":"LA1 1QH","max_occupants":5,"ward":"Castle","lat":54.049007,"lng":-2.7955,"lsoa":"Lancaster 014A"},{"address":"5 Friar Street, Lancaster, Lancashire, LA1 1PZ 02/12/2019 02/12/2024 5 Bedrooms 5","postcode":"LA1 1PZ","max_occupants":5,"ward":"Castle","lat":54.048826,"lng":-2.7971,"lsoa":"Lancaster 014E"},{"address":"5 Gladstone Terrace, Lancaster, Lancashire, LA1 1DW 18/06/2021 18/06/2026 5 Bedrooms 5","postcode":"LA1 1DW","max_occupants":5,"ward":"Bulk","lat":54.052579,"lng":-2.793567,"lsoa":"Lancaster 014A"},{"address":"5 Golgotha Road, Lancaster, Lancashire, LA1 3AA 22/09/2023 22/09/2028 5 Bedrooms 5","postcode":"LA1 3AA","max_occupants":5,"ward":"Bowerham","lat":54.038592,"lng":-2.788368,"lsoa":"Lancaster 015E"},{"address":"5 Gregson Road, Lancaster, Lancashire, LA1 3DH 16/02/2024 16/02/2029 6 Bedrooms 6","postcode":"LA1 3DH","max_occupants":5,"ward":"John O'Gaunt","lat":54.045485,"lng":-2.789919,"lsoa":"Lancaster 015B"},{"address":"5 Havelock Street, Lancaster, Lancashire, LA1 4AD 16/02/2024 16/02/2029 5 Bedrooms 5","postcode":"LA1 4AD","max_occupants":5,"ward":"Bowerham","lat":54.039512,"lng":-2.789256,"lsoa":"Lancaster 015E"},{"address":"Flat 3, 5 Queen Street, Lancaster, Lancashire, LA1 1RS 16/02/2024 16/02/2029 8 Bedrooms 8","postcode":"LA1 1RS","max_occupants":3,"ward":"Castle","lat":54.045606,"lng":-2.801483,"lsoa":"Lancaster 014E"},{"address":"Flat 1, 5 Queen Street, Lancaster, Lancashire, LA1 1RS 16/02/2024 16/02/2029 6 Bedrooms 6","postcode":"LA1 1RS","max_occupants":5,"ward":"Castle","lat":54.045606,"lng":-2.801483,"lsoa":"Lancaster 014E"},{"address":"Flat 2, 5 Queen Street, Lancaster, Lancashire, LA1 1RS 16/02/2024 16/02/2029 6 Bedrooms 6","postcode":"LA1 1RS","max_occupants":2,"ward":"Castle","lat":54.045606,"lng":-2.801483,"lsoa":"Lancaster 014E"},{"address":"5 Quernmore Road, Lancaster, Lancashire, LA1 3EB 10/09/2021 10/09/2026 5 Bedrooms 5","postcode":"LA1 3EB","max_occupants":5,"ward":"Bulk","lat":54.04736,"lng":-2.78774,"lsoa":"Lancaster 013C"},{"address":"5 Ridge Lane, Lancaster, Lancashire, LA1 1EB 17/06/2024 17/06/2029 7 Bedrooms 7","postcode":"LA1 1EB","max_occupants":5,"ward":"Bulk","lat":54.053238,"lng":-2.791838,"lsoa":"Lancaster 014A"},{"address":"5 Rosebery Avenue, Lancaster, Lancashire, LA1 4DJ 02/09/2020 02/09/2025 5 Bedrooms 5","postcode":"LA1 4DJ","max_occupants":5,"ward":"Bowerham","lat":54.036986,"lng":-2.79075,"lsoa":"Lancaster 018D"},{"address":"5 Ullswater Road, Lancaster, Lancashire, LA1 3PP 30/10/2023 30/10/2028 5 Bedrooms 5","postcode":"LA1 3PP","max_occupants":5,"ward":"Bulk","lat":54.050667,"lng":-2.790552,"lsoa":"Lancaster 013C"},{"address":"5 Villas Court, Lancaster, Lancashire, LA1 1TR 13/05/2020 13/05/2025 6 Bedrooms 6","postcode":"LA1 1TR","max_occupants":5,"ward":"Castle","lat":54.044465,"lng":-2.805477,"lsoa":"Lancaster 017C"},{"address":"60 Coulston Road, Lancaster, Lancashire, LA1 3AE 29/11/2021 29/11/2026 6 Bedrooms 6","postcode":"LA1 3AE","max_occupants":60,"ward":"Bowerham","lat":54.038065,"lng":-2.787946,"lsoa":"Lancaster 015E"},{"address":"60 Greaves Road, Lancaster, Lancashire, LA1 4UR 19/11/2020 19/11/2025 6 Bedrooms 6","postcode":"LA1 4UR","max_occupants":60,"ward":"Scotforth West","lat":54.040687,"lng":-2.796425,"lsoa":"Lancaster 015D"},{"address":"61 Clarence Street, Lancaster, Lancashire, LA1 3BB 06/03/2023 06/03/2028 5 Bedrooms 5","postcode":"LA1 3BB","max_occupants":61,"ward":"John O'Gaunt","lat":54.043416,"lng":-2.790155,"lsoa":"Lancaster 015E"},{"address":"61 South Road, Lancaster, Lancashire, LA1 4XJ 26/04/2021 26/04/2026 5 Bedrooms 5","postcode":"LA1 4XJ","max_occupants":61,"ward":"Castle","lat":54.043368,"lng":-2.797484,"lsoa":"Lancaster 014F"},{"address":"62 Blades Street, Lancaster, Lancashire, LA1 1TS 17/07/2020 17/07/2025 6 Bedrooms 6","postcode":"LA1 1TS","max_occupants":62,"ward":"Castle","lat":54.045828,"lng":-2.805885,"lsoa":"Lancaster 017C"},{"address":"62 Dale Street, Lancaster, Lancashire, LA1 3AW 28/10/2022 28/10/2027 5 Bedrooms 6","postcode":"LA1 3AW","max_occupants":62,"ward":"John O'Gaunt","lat":54.043094,"lng":-2.793966,"lsoa":"Lancaster 015E"},{"address":"62 Newsham Road, Lancaster, Lancashire, LA1 4DH 29/10/2021 29/10/2026 5 Bedrooms 5","postcode":"LA1 4DH","max_occupants":62,"ward":"Bowerham","lat":54.036859,"lng":-2.792259,"lsoa":"Lancaster 018D"},{"address":"63 Ashfield Avenue, Lancaster, Lancashire, LA1 5DZ 26/11/2020 26/11/2025 5 Bedrooms 5","postcode":"LA1 5DZ","max_occupants":63,"ward":"Marsh","lat":54.046392,"lng":-2.811593,"lsoa":"Lancaster 017D"},{"address":"64 Blades Street, Lancaster, Lancashire, LA1 1TS 09/04/2023 09/04/2028 6 Bedrooms 6","postcode":"LA1 1TS","max_occupants":64,"ward":"Castle","lat":54.045828,"lng":-2.805885,"lsoa":"Lancaster 017C"},{"address":"64 Dale Street, Lancaster, Lancashire, LA1 3AW 04/04/2021 04/04/2026 6 Bedrooms 6","postcode":"LA1 3AW","max_occupants":64,"ward":"John O'Gaunt","lat":54.043094,"lng":-2.793966,"lsoa":"Lancaster 015E"},{"address":"64 Newsham Road, Lancaster, Lancashire, LA1 4DH 30/08/2022 30/08/2027 5 Bedrooms 5","postcode":"LA1 4DH","max_occupants":64,"ward":"Bowerham","lat":54.036859,"lng":-2.792259,"lsoa":"Lancaster 018D"},{"address":"64 Regent Street, Lancaster, Lancashire, LA1 1SH 09/10/2023 09/10/2028 6 Bedrooms 6","postcode":"LA1 1SH","max_occupants":64,"ward":"Castle","lat":54.042927,"lng":-2.804287,"lsoa":"Lancaster 014F"},{"address":"65 Blades Street, Lancaster, Lancashire, LA1 1TS 08/11/2021 08/11/2026 6 Bedrooms 6","postcode":"LA1 1TS","max_occupants":65,"ward":"Castle","lat":54.045828,"lng":-2.805885,"lsoa":"Lancaster 017C"},{"address":"65 Dale Street, Lancaster, Lancashire, LA1 3AP 29/11/2021 29/11/2026 6 Bedrooms 6","postcode":"LA1 3AP","max_occupants":65,"ward":"John O'Gaunt","lat":54.043492,"lng":-2.793546,"lsoa":"Lancaster 015E"},{"address":"65 Patterdale Road, Lancaster, Lancashire, LA1 3HS 03/11/2021 03/11/2026 6 Bedrooms 6","postcode":"LA1 3HS","max_occupants":65,"ward":"Bulk","lat":54.056424,"lng":-2.78698,"lsoa":"Lancaster 013A"},{"address":"65 St Oswald Street, Lancaster, Lancashire, LA1 3AS 06/01/2023 06/01/2028 5 Bedrooms 5","postcode":"LA1 3AS","max_occupants":65,"ward":"John O'Gaunt","lat":54.042176,"lng":-2.791414,"lsoa":"Lancaster 015E"},{"address":"66 Dallas Road, Lancaster, Lancashire, LA1 1TW 28/10/2022 28/10/2027 6 Bedrooms 6","postcode":"LA1 1TW","max_occupants":66,"ward":"Castle","lat":54.046301,"lng":-2.805009,"lsoa":"Lancaster 017C"},{"address":"67 Dale Street, Lancaster, Lancashire, LA1 3AP 08/04/2022 08/04/2027 6 Bedrooms 6","postcode":"LA1 3AP","max_occupants":67,"ward":"John O'Gaunt","lat":54.043492,"lng":-2.793546,"lsoa":"Lancaster 015E"},{"address":"67 Prospect Street, Lancaster, Lancashire, LA1 3BL 28/10/2022 28/10/2027 5 Bedrooms 5","postcode":"LA1 3BL","max_occupants":67,"ward":"John O'Gaunt","lat":54.043668,"lng":-2.792756,"lsoa":"Lancaster 015E"},{"address":"68 Clare Road, Lancaster, Lancashire, LA1 2LT 13/06/2024 13/06/2029 6 Bedrooms 6","postcode":"LA1 2LT","max_occupants":68,"ward":"Skerton","lat":54.060833,"lng":-2.807979,"lsoa":"Lancaster 011B"},{"address":"68 Dallas Road, Lancaster, Lancashire, LA1 1TW 19/06/2023 19/06/2028 7 Bedrooms 7","postcode":"LA1 1TW","max_occupants":68,"ward":"Castle","lat":54.046301,"lng":-2.805009,"lsoa":"Lancaster 017C"},{"address":"69a Penny Street, Lancaster, Lancashire, LA1 1XF 03/03/2024 03/03/2029 6 Bedrooms 6","postcode":"LA1 1XF","max_occupants":3,"ward":"Castle","lat":54.047027,"lng":-2.799998,"lsoa":"Lancaster 014E"},{"address":"69 Blades Street, Lancaster, Lancashire, LA1 1TS 23/08/2023 23/08/2028 5 Bedrooms 5","postcode":"LA1 1TS","max_occupants":69,"ward":"Castle","lat":54.045828,"lng":-2.805885,"lsoa":"Lancaster 017C"},{"address":"69 Scotforth Road, Lancaster, Lancashire, LA1 4SD 07/05/2024 07/05/2029 7 Bedrooms 7","postcode":"LA1 4SD","max_occupants":69,"ward":"Scotforth East","lat":54.031707,"lng":-2.793978,"lsoa":"Lancaster 018B"},{"address":"6 Adelphi Street, Lancaster, Lancashire, LA1 4AF 30/08/2023 30/08/2028 5 Bedrooms 5","postcode":"LA1 4AF","max_occupants":6,"ward":"Bowerham","lat":54.039047,"lng":-2.788926,"lsoa":"Lancaster 015E"},{"address":"6 Blades Street, Lancaster, Lancashire, LA1 1TT 20/02/2023 20/02/2028 8 Bedrooms 8","postcode":"LA1 1TT","max_occupants":6,"ward":"Castle","lat":54.046699,"lng":-2.805979,"lsoa":"Lancaster 017C"},{"address":"6 Dallas Road, Lancaster, Lancashire, LA1 1TN 21/10/2022 21/10/2027 7 Bedrooms 7","postcode":"LA1 1TN","max_occupants":6,"ward":"Castle","lat":54.047848,"lng":-2.804871,"lsoa":"Lancaster 014E"},{"address":"6 Dumbarton Road, Lancaster, Lancashire, LA1 3BX 21/11/2022 21/11/2027 5 Bedrooms 5","postcode":"LA1 3BX","max_occupants":6,"ward":"John O'Gaunt","lat":54.045878,"lng":-2.792935,"lsoa":"Lancaster 015B"},{"address":"6 Golgotha Road, Lancaster, Lancashire, LA1 3AA 17/10/2022 17/10/2027 5 Bedrooms 5","postcode":"LA1 3AA","max_occupants":6,"ward":"Bowerham","lat":54.038592,"lng":-2.788368,"lsoa":"Lancaster 015E"},{"address":"6 Green Street, Lancaster, Lancashire, LA1 1DZ 22/01/2023 22/01/2028 5 Bedrooms 5","postcode":"LA1 1DZ","max_occupants":6,"ward":"Bulk","lat":54.052999,"lng":-2.792552,"lsoa":"Lancaster 014A"},{"address":"6 Gregson Road, Lancaster, Lancashire, LA1 3DJ 29/11/2021 29/11/2026 6 Bedrooms 6","postcode":"LA1 3DJ","max_occupants":6,"ward":"John O'Gaunt","lat":54.046222,"lng":-2.789811,"lsoa":"Lancaster 015B"},{"address":"6 Hubert Place, Lancaster, Lancashire, LA1 5PF 10/07/2023 10/07/2028 6 Bedrooms 6","postcode":"LA1 5PF","max_occupants":6,"ward":"Marsh","lat":54.051152,"lng":-2.812099,"lsoa":"Lancaster 014C"},{"address":"6 Marton Street, Lancaster, Lancashire, LA1 1XX 02/06/2023 02/06/2028 5 Bedrooms 5","postcode":"LA1 1XX","max_occupants":6,"ward":"Castle","lat":54.046393,"lng":-2.799375,"lsoa":"Lancaster 014E"},{"address":"6 Milking Stile Lane, Lancaster, Lancashire, LA1 5QB 17/04/2023 17/04/2028 6 Bedrooms 6","postcode":"LA1 5QB","max_occupants":6,"ward":"Marsh","lat":54.0478,"lng":-2.81605,"lsoa":"Lancaster 017A"},{"address":"6 Villas Court, Lancaster, Lancashire, LA1 1TR 12/02/2021 12/02/2026 6 Bedrooms 6","postcode":"LA1 1TR","max_occupants":6,"ward":"Castle","lat":54.044465,"lng":-2.805477,"lsoa":"Lancaster 017C"},{"address":"6 Westbourne Road, Lancaster, Lancashire, LA1 5DB 28/10/2022 28/10/2027 9 Bedrooms 9","postcode":"LA1 5DB","max_occupants":6,"ward":"Marsh","lat":54.048107,"lng":-2.809152,"lsoa":"Lancaster 014C"},{"address":"Flat 1, 70-72 Penny Street, Lancaster, Lancashire, LA1 1XF 22/02/2024 22/02/2029 5 Bedrooms 5","postcode":"LA1 1XF","max_occupants":70,"ward":"Castle","lat":54.047027,"lng":-2.799998,"lsoa":"Lancaster 014E"},{"address":"70 Broadway, Lancaster, Lancashire, LA1 2BU 14/08/2020 14/08/2025 5 Bedrooms 5","postcode":"LA1 2BU","max_occupants":70,"ward":"Skerton","lat":54.059377,"lng":-2.79854,"lsoa":"Lancaster 011C"},{"address":"71 Dale Street, Lancaster, Lancashire, LA1 3AP 02/10/2023 02/10/2028 5 Bedrooms 5","postcode":"LA1 3AP","max_occupants":71,"ward":"John O'Gaunt","lat":54.043492,"lng":-2.793546,"lsoa":"Lancaster 015E"},{"address":"72 Broadway, Lancaster, Lancashire, LA1 2BU 12/10/2021 12/10/2026 5 Bedrooms 5","postcode":"LA1 2BU","max_occupants":72,"ward":"Skerton","lat":54.059377,"lng":-2.79854,"lsoa":"Lancaster 011C"},{"address":"73 Dale Street, Lancaster, Lancashire, LA1 3AP 14/11/2021 14/11/2026 5 Bedrooms 5","postcode":"LA1 3AP","max_occupants":73,"ward":"John O'Gaunt","lat":54.043492,"lng":-2.793546,"lsoa":"Lancaster 015E"},{"address":"74 Bowerham Road, Lancaster, Lancashire, LA1 4DR 17/10/2022 17/10/2027 6 Bedrooms 6","postcode":"LA1 4DR","max_occupants":74,"ward":"Bowerham","lat":54.036905,"lng":-2.789329,"lsoa":"Lancaster 018D"},{"address":"74 Windermere Road, Lancaster, Lancashire, LA1 3EZ 28/10/2022 28/10/2027 6 Bedrooms 6","postcode":"LA1 3EZ","max_occupants":74,"ward":"Bulk","lat":54.04929,"lng":-2.788052,"lsoa":"Lancaster 013C"},{"address":"75 Clarence Street, Lancaster, Lancashire, LA1 3BB 01/10/2023 01/10/2028 5 Bedrooms 5","postcode":"LA1 3BB","max_occupants":75,"ward":"John O'Gaunt","lat":54.043416,"lng":-2.790155,"lsoa":"Lancaster 015E"},{"address":"76 Bowerham Road, Lancaster, Lancashire, LA1 4DR 28/11/2019 28/11/2024 6 Bedrooms 6","postcode":"LA1 4DR","max_occupants":76,"ward":"Bowerham","lat":54.036905,"lng":-2.789329,"lsoa":"Lancaster 018D"},{"address":"76 Dallas Road, Lancaster, Lancashire, LA1 1TW 21/05/2024 21/05/2029 9 Bedrooms 9","postcode":"LA1 1TW","max_occupants":76,"ward":"Castle","lat":54.046301,"lng":-2.805009,"lsoa":"Lancaster 017C"},{"address":"76 Windermere Road, Lancaster, Lancashire, LA1 3EZ 22/01/2023 22/01/2028 6 Bedrooms 6","postcode":"LA1 3EZ","max_occupants":76,"ward":"Bulk","lat":54.04929,"lng":-2.788052,"lsoa":"Lancaster 013C"},{"address":"77 Ashfield Avenue, Lancaster, Lancashire, LA1 5DZ 30/04/2021 30/04/2026 5 Bedrooms 5","postcode":"LA1 5DZ","max_occupants":77,"ward":"Marsh","lat":54.046392,"lng":-2.811593,"lsoa":"Lancaster 017D"},{"address":"77 Sibsey Street, Lancaster, Lancashire, LA1 5DQ 28/10/2022 28/10/2027 5 Bedrooms 5","postcode":"LA1 5DQ","max_occupants":77,"ward":"Marsh","lat":54.045588,"lng":-2.808233,"lsoa":"Lancaster 017C"},{"address":"78 Dallas Road, Lancaster, Lancashire, LA1 1TW 03/01/2020 03/01/2025 6 Bedrooms 6","postcode":"LA1 1TW","max_occupants":78,"ward":"Castle","lat":54.046301,"lng":-2.805009,"lsoa":"Lancaster 017C"},{"address":"Flat, 78 Penny Street, Lancaster, Lancashire, LA1 1XN 12/10/2021 12/10/2026 6 Bedrooms 6","postcode":"LA1 1XN","max_occupants":78,"ward":"Castle","lat":54.045887,"lng":-2.799747,"lsoa":"Lancaster 014E"},{"address":"79 Dale Street, Lancaster, Lancashire, LA1 3AP 28/10/2022 28/10/2027 6 Bedrooms 6","postcode":"LA1 3AP","max_occupants":79,"ward":"John O'Gaunt","lat":54.043492,"lng":-2.793546,"lsoa":"Lancaster 015E"},{"address":"79 Scotforth Road, Lancaster, Lancashire, LA1 4SD 29/10/2021 29/10/2026 6 Bedrooms 6","postcode":"LA1 4SD","max_occupants":79,"ward":"Scotforth East","lat":54.031707,"lng":-2.793978,"lsoa":"Lancaster 018B"},{"address":"7 Brunton Road, Lancaster, Lancashire, LA1 4UQ 12/10/2021 12/10/2026 5 Bedrooms 5","postcode":"LA1 4UQ","max_occupants":7,"ward":"Scotforth West","lat":54.038003,"lng":-2.797259,"lsoa":"Lancaster 017E"},{"address":"7 Cable Street, Lancaster, Lancashire, LA1 1HD 04/04/2024 04/04/2029 8 Bedrooms 8","postcode":"LA1 1HD","max_occupants":7,"ward":"Castle","lat":54.051004,"lng":-2.800731,"lsoa":"Lancaster 014A"},{"address":"7 Dale Street, Lancaster, Lancashire, LA1 3AP 08/03/2021 08/03/2026 5 Bedrooms 5","postcode":"LA1 3AP","max_occupants":7,"ward":"John O'Gaunt","lat":54.043492,"lng":-2.793546,"lsoa":"Lancaster 015E"},{"address":"7 Gladstone Terrace, Lancaster, Lancashire, LA1 1DW 18/06/2021 18/06/2026 5 Bedrooms 5","postcode":"LA1 1DW","max_occupants":7,"ward":"Bulk","lat":54.052579,"lng":-2.793567,"lsoa":"Lancaster 014A"},{"address":"7 Hammerton Hall Close, Lancaster, Lancashire, LA1 2JX 25/01/2021 25/01/2026 5 Bedrooms 5","postcode":"LA1 2JX","max_occupants":7,"ward":"Scale Hall","lat":54.066886,"lng":-2.809916,"lsoa":"Lancaster 011E"},{"address":"7 Hubert Place, Lancaster, Lancashire, LA1 5PF 09/10/2022 09/10/2027 7 Bedrooms 7","postcode":"LA1 5PF","max_occupants":7,"ward":"Marsh","lat":54.051152,"lng":-2.812099,"lsoa":"Lancaster 014C"},{"address":"7 Kirkes Road, Lancaster, Lancashire, LA1 3DP 09/10/2022 09/10/2027 5 Bedrooms 5","postcode":"LA1 3DP","max_occupants":7,"ward":"John O'Gaunt","lat":54.046109,"lng":-2.789228,"lsoa":"Lancaster 015B"},{"address":"7 Lindow Square, Lancaster, Lancashire, LA1 1SE 21/06/2024 21/06/2029 7 Bedrooms 7","postcode":"LA1 1SE","max_occupants":7,"ward":"Castle","lat":54.045332,"lng":-2.803432,"lsoa":"Lancaster 014F"},{"address":"7 St Oswald Street, Lancaster, Lancashire, LA1 3AS 23/10/2020 23/10/2025 5 Bedrooms 5","postcode":"LA1 3AS","max_occupants":7,"ward":"John O'Gaunt","lat":54.042176,"lng":-2.791414,"lsoa":"Lancaster 015E"},{"address":"80a Penny Street, Lancaster, Lancashire, LA1 1XN 13/05/2020 13/05/2025 7 Bedrooms 7","postcode":"LA1 1XN","max_occupants":13,"ward":"Castle","lat":54.045887,"lng":-2.799747,"lsoa":"Lancaster 014E"},{"address":"80 Coulston Road, Lancaster, Lancashire, LA1 3AB 01/11/2024 01/11/2029 5 Bedrooms 5","postcode":"LA1 3AB","max_occupants":80,"ward":"Bowerham","lat":54.039457,"lng":-2.785407,"lsoa":"Lancaster 013D"},{"address":"80 Dale Street, Lancaster, Lancashire, LA1 3AW 11/01/2021 11/01/2026 5 Bedrooms 5","postcode":"LA1 3AW","max_occupants":80,"ward":"John O'Gaunt","lat":54.043094,"lng":-2.793966,"lsoa":"Lancaster 015E"},{"address":"81 Lune Street, Lancaster, Lancashire, LA1 2AJ 29/12/2023 29/12/2028 5 Bedrooms 5","postcode":"LA1 2AJ","max_occupants":81,"ward":"Skerton","lat":54.054239,"lng":-2.79948,"lsoa":"Lancaster 011C"},{"address":"82 Coulston Road, Lancaster, Lancashire, LA1 3AB 28/08/2024 28/08/2029 6 Bedrooms 6","postcode":"LA1 3AB","max_occupants":82,"ward":"Bowerham","lat":54.039457,"lng":-2.785407,"lsoa":"Lancaster 013D"},{"address":"83 Balmoral Road, Lancaster, Lancashire, LA1 3BT 21/11/2022 21/11/2027 6 Bedrooms 6","postcode":"LA1 3BT","max_occupants":83,"ward":"John O'Gaunt","lat":54.04651,"lng":-2.791252,"lsoa":"Lancaster 015B"},{"address":"83 Prospect Street, Lancaster, Lancashire, LA1 3BH 15/10/2024 15/10/2029 6 Bedrooms 6","postcode":"LA1 3BH","max_occupants":83,"ward":"John O'Gaunt","lat":54.04266,"lng":-2.793103,"lsoa":"Lancaster 015E"},{"address":"84-86 Bowerham Road, Lancaster, Lancashire, LA1 4DR 26/09/2023 26/09/2028 10 Bedrooms 10","postcode":"LA1 4DR","max_occupants":84,"ward":"Bowerham","lat":54.036905,"lng":-2.789329,"lsoa":"Lancaster 018D"},{"address":"84 Dallas Road, Lancaster, Lancashire, LA1 1TW 26/02/2021 26/02/2026 6 Bedrooms 6","postcode":"LA1 1TW","max_occupants":84,"ward":"Castle","lat":54.046301,"lng":-2.805009,"lsoa":"Lancaster 017C"},{"address":"84 Dale Street, Lancaster, Lancashire, LA1 3AW 04/10/2023 04/10/2028 5 Bedrooms 5","postcode":"LA1 3AW","max_occupants":84,"ward":"John O'Gaunt","lat":54.043094,"lng":-2.793966,"lsoa":"Lancaster 015E"},{"address":"85 Balmoral Road, Lancaster, Lancashire, LA1 3BT 08/03/2023 08/03/2028 6 Bedrooms 6","postcode":"LA1 3BT","max_occupants":85,"ward":"John O'Gaunt","lat":54.04651,"lng":-2.791252,"lsoa":"Lancaster 015B"},{"address":"88 St Leonards Gate, Lancaster, Lancashire, LA1 1NN 31/05/2023 31/05/2028 6 Bedrooms 6","postcode":"LA1 1NN","max_occupants":88,"ward":"Castle","lat":54.049989,"lng":-2.797932,"lsoa":"Lancaster 014A"},{"address":"89 Bowerham Road, Lancaster, Lancashire, LA1 4HJ 13/05/2020 13/05/2025 6 Bedrooms 6","postcode":"LA1 4HJ","max_occupants":89,"ward":"Bowerham","lat":54.036221,"lng":-2.788186,"lsoa":"Lancaster 018A"},{"address":"89 King Street, Lancaster, Lancashire, LA1 1RH 08/01/2021 08/01/2026 9 Bedrooms 9","postcode":"LA1 1RH","max_occupants":89,"ward":"Castle","lat":54.046402,"lng":-2.800688,"lsoa":"Lancaster 014E"},{"address":"8 Anthony Road, Lancaster, Lancashire, LA1 5DR 20/09/2021 20/09/2026 5 Bedrooms 5","postcode":"LA1 5DR","max_occupants":8,"ward":"Marsh","lat":54.046556,"lng":-2.809932,"lsoa":"Lancaster 017D"},{"address":"8 Carr House Lane, Lancaster, Lancashire, LA1 1SW 13/05/2020 13/05/2025 6 Bedrooms 6","postcode":"LA1 1SW","max_occupants":8,"ward":"Castle","lat":54.043177,"lng":-2.805849,"lsoa":"Lancaster 014F"},{"address":"8 Dallas Road, Lancaster, Lancashire, LA1 1TN 07/11/2022 07/11/2027 6 Bedrooms 6","postcode":"LA1 1TN","max_occupants":8,"ward":"Castle","lat":54.047848,"lng":-2.804871,"lsoa":"Lancaster 014E"},{"address":"8 Dumbarton Road, Lancaster, Lancashire, LA1 3BX 28/10/2022 28/10/2027 5 Bedrooms 5","postcode":"LA1 3BX","max_occupants":8,"ward":"John O'Gaunt","lat":54.045878,"lng":-2.792935,"lsoa":"Lancaster 015B"},{"address":"8 Green Street, Lancaster, Lancashire, LA1 1DZ 28/10/2022 28/10/2027 5 Bedrooms 5","postcode":"LA1 1DZ","max_occupants":8,"ward":"Bulk","lat":54.052999,"lng":-2.792552,"lsoa":"Lancaster 014A"},{"address":"8 Hubert Place, Lancaster, Lancashire, LA1 5PF 30/08/2024 30/08/2029 6 Bedrooms 6","postcode":"LA1 5PF","max_occupants":8,"ward":"Marsh","lat":54.051152,"lng":-2.812099,"lsoa":"Lancaster 014C"},{"address":"8 Kenilworth Place, Lancaster, Lancashire, LA1 4HE 17/10/2022 17/10/2027 7 Bedrooms 7","postcode":"LA1 4HE","max_occupants":8,"ward":"Bowerham","lat":54.035978,"lng":-2.789616,"lsoa":"Lancaster 018D"},{"address":"8 Portland Street, Lancaster, Lancashire, LA1 1SZ 09/09/2020 09/09/2025 6 Bedrooms 6","postcode":"LA1 1SZ","max_occupants":8,"ward":"Castle","lat":54.044662,"lng":-2.80293,"lsoa":"Lancaster 014F"},{"address":"8 Westbourne Road, Lancaster, Lancashire, LA1 5DB 25/03/2020 25/03/2025 9 Bedrooms 9","postcode":"LA1 5DB","max_occupants":8,"ward":"Marsh","lat":54.048107,"lng":-2.809152,"lsoa":"Lancaster 014C"},{"address":"91 Dale Street, Lancaster, Lancashire, LA1 3AP 11/01/2021 11/01/2026 5 Bedrooms 5","postcode":"LA1 3AP","max_occupants":91,"ward":"John O'Gaunt","lat":54.043492,"lng":-2.793546,"lsoa":"Lancaster 015E"},{"address":"91 Scotforth Road, Lancaster, Lancashire, LA1 4JN 04/12/2021 04/12/2026 5 Bedrooms 5","postcode":"LA1 4JN","max_occupants":91,"ward":"Scotforth East","lat":54.030628,"lng":-2.794034,"lsoa":"Lancaster 018B"},{"address":"93a Penny Street, Lancaster, Lancashire, LA1 1XN 06/01/2022 06/01/2027 5 Bedrooms 5","postcode":"LA1 1XN","max_occupants":6,"ward":"Castle","lat":54.045887,"lng":-2.799747,"lsoa":"Lancaster 014E"},{"address":"93 Dale Street, Lancaster, Lancashire, LA1 3AP 06/06/2021 06/06/2026 5 Bedrooms 0","postcode":"LA1 3AP","max_occupants":93,"ward":"John O'Gaunt","lat":54.043492,"lng":-2.793546,"lsoa":"Lancaster 015E"},{"address":"94 Ullswater Road, Lancaster, Lancashire, LA1 3PS 17/06/2024 17/06/2029 0 Bedrooms 5","postcode":"LA1 3PS","max_occupants":94,"ward":"Bulk","lat":54.049586,"lng":-2.790913,"lsoa":"Lancaster 014B"},{"address":"96 Bowerham Road, Lancaster, Lancashire, LA1 4HL 02/04/2024 02/04/2029 5 Bedrooms 5","postcode":"LA1 4HL","max_occupants":96,"ward":"Scotforth East","lat":54.035564,"lng":-2.788296,"lsoa":"Lancaster 018B"},{"address":"The Shakespeare, 96 St Leonards Gate, Lancaster, Lancashire, LA1 1NN 13/11/2020 13/11/2025 8 Bedrooms 8","postcode":"LA1 1NN","max_occupants":96,"ward":"Castle","lat":54.049989,"lng":-2.797932,"lsoa":"Lancaster 014A"},{"address":"97b Penny Street, Lancaster, Lancashire, LA1 1XN 19/09/2021 19/09/2026 6 Bedrooms 6","postcode":"LA1 1XN","max_occupants":19,"ward":"Castle","lat":54.045887,"lng":-2.799747,"lsoa":"Lancaster 014E"},{"address":"97 Scotforth Road, Lancaster, Lancashire, LA1 4JN 31/01/2022 31/01/2027 6 Bedrooms 6","postcode":"LA1 4JN","max_occupants":97,"ward":"Scotforth East","lat":54.030628,"lng":-2.794034,"lsoa":"Lancaster 018B"},{"address":"99 Dale Street, Lancaster, Lancashire, LA1 3AP 13/06/2024 13/06/2029 5 Bedrooms 5","postcode":"LA1 3AP","max_occupants":99,"ward":"John O'Gaunt","lat":54.043492,"lng":-2.793546,"lsoa":"Lancaster 015E"},{"address":"9 Blades Street, Lancaster, Lancashire, LA1 1TT 07/08/2022 07/08/2027 6 Bedrooms 6","postcode":"LA1 1TT","max_occupants":9,"ward":"Castle","lat":54.046699,"lng":-2.805979,"lsoa":"Lancaster 017C"},{"address":"9 Denis Street, Lancaster, Lancashire, LA1 1QX 13/06/2024 13/06/2029 5 Bedrooms 5","postcode":"LA1 1QX","max_occupants":9,"ward":"Castle","lat":54.050942,"lng":-2.793826,"lsoa":"Lancaster 014A"},{"address":"9 Hubert Place, Lancaster, Lancashire, LA1 5PF 28/10/2022 28/10/2027 6 Bedrooms 6","postcode":"LA1 5PF","max_occupants":9,"ward":"Marsh","lat":54.051152,"lng":-2.812099,"lsoa":"Lancaster 014C"},{"address":"9 Kenilworth Place, Lancaster, Lancashire, LA1 4HE 21/01/2024 21/01/2029 5 Bedrooms 5","postcode":"LA1 4HE","max_occupants":9,"ward":"Bowerham","lat":54.035978,"lng":-2.789616,"lsoa":"Lancaster 018D"},{"address":"9 Lindow Square, Lancaster, Lancashire, LA1 1SE 28/10/2022 28/10/2027 5 Bedrooms 6","postcode":"LA1 1SE","max_occupants":9,"ward":"Castle","lat":54.045332,"lng":-2.803432,"lsoa":"Lancaster 014F"},{"address":"First Floor, 9 Moor Gate, Lancaster, Lancashire, LA1 3QF 16/08/2021 16/08/2026 5 Bedrooms 5","postcode":"LA1 3QF","max_occupants":9,"ward":"Bulk","lat":54.048439,"lng":-2.793015,"lsoa":"Lancaster 014B"},{"address":"Flat 1, Marton House, Aalborg Place, Lancaster, Lancashire, LA1 1BJ 24/06/2022 24/06/2027 6 Bedrooms 6","postcode":"LA1 1BJ","max_occupants":24,"ward":"Castle","lat":54.046108,"lng":-2.797674,"lsoa":"Lancaster 014E"},{"address":"Flat 2, Marton House, Aalborg Place, Lancaster, Lancashire, LA1 1BJ 13/12/2021 13/12/2026 6 Bedrooms 6","postcode":"LA1 1BJ","max_occupants":2,"ward":"Castle","lat":54.046108,"lng":-2.797674,"lsoa":"Lancaster 014E"},{"address":"Flat 3, Marton House, Aalborg Place, Lancaster, Lancashire, LA1 1BJ 13/12/2021 13/12/2026 6 Bedrooms 6","postcode":"LA1 1BJ","max_occupants":3,"ward":"Castle","lat":54.046108,"lng":-2.797674,"lsoa":"Lancaster 014E"},{"address":"4 Portland Place, Aldcliffe Road, Lancaster, Lancashire, LA1 1SX 23/10/2020 23/10/2025 6 Bedrooms 6","postcode":"LA1 1SX","max_occupants":4,"ward":"Castle","lat":54.043457,"lng":-2.802953,"lsoa":"Lancaster 014F"},{"address":"Flat 1, Samuel Court, Ashton Road, Lancaster, Lancashire, LA1 5FG 13/09/2022 13/09/2027 5 Bedrooms 5","postcode":"LA1 5FG","max_occupants":13,"ward":"Scotforth West","lat":54.03295,"lng":-2.804368,"lsoa":"Lancaster 017E"},{"address":"Flat 2, Samuel Court, Ashton Road, Lancaster, Lancashire, LA1 5FG 13/09/2022 13/09/2027 5 Bedrooms 5","postcode":"LA1 5FG","max_occupants":2,"ward":"Scotforth West","lat":54.03295,"lng":-2.804368,"lsoa":"Lancaster 017E"},{"address":"Flat 3, Samuel Court, Ashton Road, Lancaster, Lancashire, LA1 5FG 13/09/2022 13/09/2027 5 Bedrooms 5","postcode":"LA1 5FG","max_occupants":3,"ward":"Scotforth West","lat":54.03295,"lng":-2.804368,"lsoa":"Lancaster 017E"},{"address":"Flat 4, Samuel Court, Ashton Road, Lancaster, Lancashire, LA1 5FG 13/09/2022 13/09/2027 5 Bedrooms 5","postcode":"LA1 5FG","max_occupants":4,"ward":"Scotforth West","lat":54.03295,"lng":-2.804368,"lsoa":"Lancaster 017E"},{"address":"1 Bowerham Terrace, Bowerham Road, Lancaster, Lancashire, LA1 3AR 02/09/2020 02/09/2025 6 Bedrooms 6","postcode":"LA1 3AR","max_occupants":2,"ward":"John O'Gaunt","lat":54.042272,"lng":-2.793294,"lsoa":"Lancaster 015E"},{"address":"3 Hanmer Place, Bowerham Road, Lancaster, Lancashire, LA1 4DU 16/08/2021 16/08/2026 5 Bedrooms 5","postcode":"LA1 4DU","max_occupants":3,"ward":"Bowerham","lat":54.038446,"lng":-2.790137,"lsoa":"Lancaster 018D"},{"address":"2 Hanmer Place, Bowerham Road, Lancaster, Lancashire, LA1 4DU 21/11/2022 21/11/2027 6 Bedrooms 6","postcode":"LA1 4DU","max_occupants":2,"ward":"Bowerham","lat":54.038446,"lng":-2.790137,"lsoa":"Lancaster 018D"},{"address":"5 Gordon Terrace, Bowerham Road, Lancaster, Lancashire, LA1 4DS 29/11/2021 29/11/2026 6 Bedrooms 6","postcode":"LA1 4DS","max_occupants":5,"ward":"Bowerham","lat":54.037541,"lng":-2.789738,"lsoa":"Lancaster 018D"},{"address":"11 Bowerham Terrace, Bowerham Road, Lancaster, Lancashire, LA1 3AR 16/02/2024 16/02/2029 5 Bedrooms 5","postcode":"LA1 3AR","max_occupants":11,"ward":"John O'Gaunt","lat":54.042272,"lng":-2.793294,"lsoa":"Lancaster 015E"},{"address":"Dale House, Bowerham Road, Lancaster, Lancashire, LA1 3AN 09/04/2023 09/04/2028 8 Bedrooms 8","postcode":"LA1 3AN","max_occupants":9,"ward":"Scotforth West","lat":54.041886,"lng":-2.794478,"lsoa":"Lancaster 015D"},{"address":"7 Bowerham Terrace, Bowerham Road, Lancaster, Lancashire, LA1 3AR 13/05/2020 13/05/2025 5 Bedrooms 5","postcode":"LA1 3AR","max_occupants":7,"ward":"John O'Gaunt","lat":54.042272,"lng":-2.793294,"lsoa":"Lancaster 015E"},{"address":"1 Hanmer Place, Bowerham Road, Lancaster, Lancashire, LA1 4DU 18/05/2023 18/05/2028 5 Bedrooms 5","postcode":"LA1 4DU","max_occupants":18,"ward":"Bowerham","lat":54.038446,"lng":-2.790137,"lsoa":"Lancaster 018D"},{"address":"4 Gordon Terrace, Bowerham Road, Lancaster, Lancashire, LA1 4DS 17/06/2024 17/06/2029 6 Bedrooms 6","postcode":"LA1 4DS","max_occupants":4,"ward":"Bowerham","lat":54.037541,"lng":-2.789738,"lsoa":"Lancaster 018D"},{"address":"1 The Gardens, Dallas Road, Lancaster, Lancashire, LA1 1BA 21/10/2024 21/10/2029 8 Bedrooms 8","postcode":"LA1 1BA","max_occupants":21,"ward":"Castle","lat":54.045235,"lng":-2.80453,"lsoa":"Lancaster 014F"},{"address":"2 The Gardens, Dallas Road, Lancaster, Lancashire, LA1 1BA 21/10/2024 21/10/2029 8 Bedrooms 8","postcode":"LA1 1BA","max_occupants":2,"ward":"Castle","lat":54.045235,"lng":-2.80453,"lsoa":"Lancaster 014F"},{"address":"Apartment 1, Parkfield Lodge, Greaves Road, Lancaster, Lancashire, LA1 4TZ 13/05/2020 13/05/2025 6 Bedrooms 6","postcode":"LA1 4TZ","max_occupants":13,"ward":"Scotforth West","lat":54.039087,"lng":-2.795157,"lsoa":"Lancaster 015D"},{"address":"1-2 Hawarden Cottage, Hinde Street, Lancaster, Lancashire, LA1 1DU 21/01/2024 21/01/2029 8 Bedrooms 8","postcode":"LA1 1DU","max_occupants":2,"ward":"Bulk","lat":54.052382,"lng":-2.793411,"lsoa":"Lancaster 014A"},{"address":"12 Kings Arcade, King Street, Lancaster, Lancashire, LA1 1LE 28/03/2024 28/03/2029 7 Bedrooms 7","postcode":"LA1 1LE","max_occupants":12,"ward":"Castle","lat":54.047391,"lng":-2.802067,"lsoa":"Lancaster 014E"},{"address":"11 Kings Arcade, King Street, Lancaster, Lancashire, LA1 1LE 28/03/2024 28/03/2029 6 Bedrooms 6","postcode":"LA1 1LE","max_occupants":11,"ward":"Castle","lat":54.047391,"lng":-2.802067,"lsoa":"Lancaster 014E"},{"address":"1 Lentworth House, Lentworth Drive, Lancaster, Lancashire, LA1 4RQ 29/11/2019 29/11/2024 6 Bedrooms 6","postcode":"LA1 4RQ","max_occupants":29,"ward":"Scotforth East","lat":54.02776,"lng":-2.791491,"lsoa":"Lancaster 018B"},{"address":"84 St Georges Walk, St Georges Quay, Lancaster, Lancashire, LA1 5JU 21/02/2024 21/02/2029 5 Bedrooms 5","postcode":"LA1 5JU","max_occupants":84,"ward":"Marsh","lat":54.053849,"lng":-2.812044,"lsoa":"Lancaster 014C"},{"address":"85 St Georges Walk, St Georges Quay, Lancaster, Lancashire, LA1 5JU 21/02/2024 21/02/2029 5 Bedrooms 5","postcode":"LA1 5JU","max_occupants":85,"ward":"Marsh","lat":54.053849,"lng":-2.812044,"lsoa":"Lancaster 014C"},{"address":"86 St Georges Walk, St Georges Quay, Lancaster, Lancashire, LA1 5JU 21/02/2024 21/02/2029 5 Bedrooms 5","postcode":"LA1 5JU","max_occupants":86,"ward":"Marsh","lat":54.053849,"lng":-2.812044,"lsoa":"Lancaster 014C"},{"address":"88 St Georges Walk, St Georges Quay, Lancaster, Lancashire, LA1 5JU 21/02/2024 21/02/2029 5 Bedrooms 5","postcode":"LA1 5JU","max_occupants":88,"ward":"Marsh","lat":54.053849,"lng":-2.812044,"lsoa":"Lancaster 014C"},{"address":"1 Thurnham House, Thurnham Street, Lancaster, Lancashire, LA1 1XU 30/05/2022 30/05/2027 6 Bedrooms 6","postcode":"LA1 1XU","max_occupants":30,"ward":"Castle","lat":54.045877,"lng":-2.79851,"lsoa":"Lancaster 014E"},{"address":"The Cedars, Westbourne Road, Lancaster, Lancashire, LA1 5EF 13/08/2021 13/08/2026 6 Bedrooms 6","postcode":"LA1 5EF","max_occupants":13,"ward":"Marsh","lat":54.045692,"lng":-2.81413,"lsoa":"Lancaster 017A"},{"address":"Pernagie, Glenholm, Westbourne Drive, Lancaster, Lancashire, LA1 5EE 19/02/2024 19/02/2029 6 Bedrooms 6","postcode":"LA1 5EE","max_occupants":19,"ward":"Marsh","lat":54.045952,"lng":-2.812791,"lsoa":"Lancaster 017D"},{"address":"Trenemene, Glenholm, Westbourne Drive, Lancaster, Lancashire, LA1 5EE 19/02/2024 19/02/2029 6 Bedrooms 6","postcode":"LA1 5EE","max_occupants":19,"ward":"Marsh","lat":54.045952,"lng":-2.812791,"lsoa":"Lancaster 017D"},{"address":"11 Clark Street, Morecambe, Lancashire, LA4 5HR 06/01/2022 06/01/2027 6 Bedrooms 6","postcode":"LA4 5HR","max_occupants":11,"ward":"Poulton","lat":54.074116,"lng":-2.862508,"lsoa":"Lancaster 006D"},{"address":"127 Westminster Road, Morecambe, Lancashire, LA3 1SJ 20/04/2021 20/04/2026 6 Bedrooms 6","postcode":"LA3 1SJ","max_occupants":20,"ward":"West End","lat":54.063805,"lng":-2.88017,"lsoa":"Lancaster 009C"},{"address":"165 Euston Road, Morecambe, Lancashire, LA4 5LQ 16/07/2021 16/07/2026 6 Bedrooms 6","postcode":"LA4 5LQ","max_occupants":16,"ward":"Poulton","lat":54.071411,"lng":-2.858677,"lsoa":"Lancaster 006D"},{"address":"16 Clarence Street, Morecambe, Lancashire, LA4 5EX 14/04/2021 14/04/2026 6 Bedrooms 6","postcode":"LA4 5EX","max_occupants":16,"ward":"Poulton","lat":54.073474,"lng":-2.863091,"lsoa":"Lancaster 006D"},{"address":"187 Lancaster Road, Morecambe, Lancashire, LA4 5QR 18/07/2023 18/07/2028 6 Bedrooms 0","postcode":"LA4 5QR","max_occupants":18,"ward":"Westgate","lat":54.069314,"lng":-2.851482,"lsoa":"Lancaster 006C"},{"address":"192 Euston Grove, Morecambe, Lancashire, LA4 5LJ 10/10/2022 10/10/2027 6 Bedrooms 4","postcode":"LA4 5LJ","max_occupants":10,"ward":"Poulton","lat":54.071156,"lng":-2.864204,"lsoa":"Lancaster 006B"},{"address":"194 Euston Grove, Morecambe, Lancashire, LA4 5LJ 29/12/2020 29/12/2025 5 Bedrooms 4","postcode":"LA4 5LJ","max_occupants":29,"ward":"Poulton","lat":54.071156,"lng":-2.864204,"lsoa":"Lancaster 006B"},{"address":"1 Grove Street, Morecambe, Lancashire, LA4 4DP 16/07/2024 16/07/2029 6 Bedrooms 6","postcode":"LA4 4DP","max_occupants":16,"ward":"West End","lat":54.067636,"lng":-2.876172,"lsoa":"Lancaster 009A"},{"address":"326 Marine Road Central, Morecambe, Lancashire, LA4 5AA 29/10/2021 29/10/2026 7 Bedrooms 6","postcode":"LA4 5AA","max_occupants":29,"ward":"Poulton","lat":54.074971,"lng":-2.862373,"lsoa":"Lancaster 006D"},{"address":"33 Heysham Road, Heysham, Lancashire, LA3 1DA 24/08/2021 24/08/2026 5 Bedrooms 5","postcode":"LA3 1DA","max_occupants":33,"ward":"Heysham North","lat":54.063913,"lng":-2.8863,"lsoa":"Lancaster 009C"},{"address":"34 Thornton Road, Morecambe, Lancashire, LA4 5PE 05/10/2021 05/10/2026 11 Bedrooms 7","postcode":"LA4 5PE","max_occupants":34,"ward":"Poulton","lat":54.075932,"lng":-2.853712,"lsoa":"Lancaster 006E"},{"address":"36 Thornton Road, Morecambe, Lancashire, LA4 5PE 05/10/2021 05/10/2026 16 Bedrooms 9","postcode":"LA4 5PE","max_occupants":36,"ward":"Poulton","lat":54.075932,"lng":-2.853712,"lsoa":"Lancaster 006E"},{"address":"39 Chatsworth Road, Morecambe, Lancashire, LA4 4JQ 24/10/2024 24/10/2029 9 Bedrooms 6","postcode":"LA4 4JQ","max_occupants":39,"ward":"West End","lat":54.065552,"lng":-2.876112,"lsoa":"Lancaster 006A"},{"address":"43-45 Alexandra Road, Morecambe, Lancashire, LA3 1RN 04/11/2020 04/11/2025 9 Bedrooms 9","postcode":"LA3 1RN","max_occupants":43,"ward":"West End","lat":54.063942,"lng":-2.882312,"lsoa":"Lancaster 009C"},{"address":"47-51 Victoria Street, Morecambe, Lancashire, LA4 4AF 23/05/2022 23/05/2027 14 Bedrooms 14","postcode":"LA4 4AF","max_occupants":47,"ward":"Poulton","lat":54.07175,"lng":-2.869061,"lsoa":"Lancaster 006D"},{"address":"48 Westminster Road, Morecambe, Lancashire, LA4 4JD 24/05/2024 24/05/2029 6 Bedrooms 6","postcode":"LA4 4JD","max_occupants":48,"ward":"West End","lat":54.065783,"lng":-2.876438,"lsoa":"Lancaster 006A"},{"address":"4 Cambridge Road, Heysham, Morecambe, Lancashire, LA3 1RY 01/06/2022 01/06/2027 5 Bedrooms 5","postcode":"LA3 1RY","max_occupants":4,"ward":"Heysham North","lat":54.063654,"lng":-2.882367,"lsoa":"Lancaster 009C"},{"address":"52 Clarendon Road East, Morecambe, Lancashire, LA4 4HT 05/06/2023 05/06/2028 7 Bedrooms 5","postcode":"LA4 4HT","max_occupants":52,"ward":"West End","lat":54.065473,"lng":-2.878296,"lsoa":"Lancaster 009A"},{"address":"7 Edward Street, Morecambe, Lancashire, LA4 4BL 10/07/2023 10/07/2028 5 Bedrooms 3","postcode":"LA4 4BL","max_occupants":7,"ward":"Poulton","lat":54.071144,"lng":-2.868345,"lsoa":"Lancaster 006D"},{"address":"7 Marine Road West, Morecambe, Lancashire, LA3 1BS 15/07/2020 15/07/2025 10 Bedrooms 5","postcode":"LA3 1BS","max_occupants":7,"ward":"Heysham North","lat":54.064645,"lng":-2.884619,"lsoa":"Lancaster 009C"},{"address":"85 Alexandra Road, Morecambe, Lancashire, LA3 1RR 30/09/2020 30/09/2025 5 Bedrooms 5","postcode":"LA3 1RR","max_occupants":85,"ward":"West End","lat":54.062842,"lng":-2.880349,"lsoa":"Lancaster 009C"},{"address":"3 Nether Lodge Cottages, Long Lane, Quernmore, Lancaster, Lancashire, LA2 9EF 08/04/2024 08/04/2029 5 Bedrooms 5","postcode":"LA2 9EF","max_occupants":3,"ward":"Lower Lune Valley","lat":54.027005,"lng":-2.7393,"lsoa":"Lancaster 005C"},{"address":"4 Nether Lodge Cottages, Long Lane, Quernmore, Lancaster, Lancashire, LA2 9EF 08/04/2024 08/04/2029 5 Bedrooms 3","postcode":"LA2 9EF","max_occupants":4,"ward":"Lower Lune Valley","lat":54.027005,"lng":-2.7393,"lsoa":"Lancaster 005C"},{"address":"1 Moor Gate, Lancaster, Lancashire, LA1 3QF 23/08/2022 23/08/2027 6 Bedrooms 6","postcode":"LA1 3QF","max_occupants":23,"ward":"Bulk","lat":54.048439,"lng":-2.793015,"lsoa":"Lancaster 014B"},{"address":"Flat 2, 16 New Street, Lancaster, Lancashire, LA1 1EG 30/10/2023 30/10/2028 6 Bedrooms 6","postcode":"LA1 1EG","max_occupants":2,"ward":"Castle","lat":54.049269,"lng":-2.802149,"lsoa":"Lancaster 014E"},{"address":"Flat 8, 2 New Road, Lancaster, Lancashire, LA1 1EZ 29/03/2019 29/03/2024 7 Bedrooms 7","postcode":"LA1 1EZ","max_occupants":8,"ward":"Castle","lat":54.050239,"lng":-2.802152,"lsoa":"Lancaster 014E"}],"planning_hmos":[],"summary":{"total_licensed":554,"total_planning_apps":0,"total_combined":554,"total_bed_spaces":14770,"avg_occupants":26.7,"planning_approved":0,"planning_refused":0,"planning_pending":0,"planning_approval_rate":null,"by_ward":{"Castle":{"licensed_hmos":176,"planning_applications":0,"total":176},"John O'Gaunt":{"licensed_hmos":103,"planning_applications":0,"total":103},"Bowerham":{"licensed_hmos":64,"planning_applications":0,"total":64},"Marsh":{"licensed_hmos":63,"planning_applications":0,"total":63},"Bulk":{"licensed_hmos":42,"planning_applications":0,"total":42},"Scotforth West":{"licensed_hmos":29,"planning_applications":0,"total":29},"Skerton":{"licensed_hmos":20,"planning_applications":0,"total":20},"Scotforth East":{"licensed_hmos":19,"planning_applications":0,"total":19},"Ellel":{"licensed_hmos":12,"planning_applications":0,"total":12},"Poulton":{"licensed_hmos":10,"planning_applications":0,"total":10},"West End":{"licensed_hmos":7,"planning_applications":0,"total":7},"Heysham North":{"licensed_hmos":3,"planning_applications":0,"total":3},"Lower Lune Valley":{"licensed_hmos":2,"planning_applications":0,"total":2},"Carnforth & Millhead":{"licensed_hmos":1,"planning_applications":0,"total":1},"Heysham South":{"licensed_hmos":1,"planning_applications":0,"total":1},"Scale Hall":{"licensed_hmos":1,"planning_applications":0,"total":1},"Westgate":{"licensed_hmos":1,"planning_applications":0,"total":1}},"hotspot_postcodes":[{"postcode":"LA1","count":517},{"postcode":"LA4","count":15},{"postcode":"LA2","count":14},{"postcode":"LA3","count":7},{"postcode":"LA5","count":1}],"top_ward":"Castle"}}