{"meta":{"council_id":"ribble_valley","fetched":"2026-03-02","source":"Downloaded from Ribble Valley HMO Register (PDF)","register_url":"https://www.ribblevalley.gov.uk/downloads/file/2415/register-of-licensed-houses-in-multiple-occupation","register_name":"Ribble Valley HMO Register","coverage":"register+planning"},"register":[{"address":"Ribble View Hillside\nBrockhall Village Old Langho\nBlackburn BB6 8BA 2425 14/05/24 13/05/29 2 4 1 shared kitchen 1\nshared bathroom 1 bathroom 7","postcode":"BB6 8BA","max_occupants":14,"ward":"Brockhall & Dinckley","lat":53.825639,"lng":-2.45909,"lsoa":"Ribble Valley 007B"},{"address":"1 Hillside Brockhall Village\nOld Langho Blackburn BB6\n8BA 2426 14/05/24 13/05/29 2 4 1 shared kitchen 1\nshared bathroom 1 bathroom 8","postcode":"BB6\n8BA","max_occupants":14,"ward":"Brockhall & Dinckley","lat":53.825639,"lng":-2.45909,"lsoa":"Ribble Valley 007B"},{"address":"2 Hillside Brockhall Village\nOld Langho Blackburn BB6\n8BA 2427 14/05/24 13/05/29 2 4 1 shared kitchen 1\nshared bathroom 1 bathroom 8","postcode":"BB6\n8BA","max_occupants":2,"ward":"Brockhall & Dinckley","lat":53.825639,"lng":-2.45909,"lsoa":"Ribble Valley 007B"},{"address":"32 West View Clitheroe BB7\n1DG 2381 27/02/24 26/02/29 3 5 1 shared kitchen 1\nshared bathroom 4 bathrooms 5","postcode":"BB7\n1DG","max_occupants":32,"ward":"Primrose","lat":53.867759,"lng":-2.397857,"lsoa":"Ribble Valley 003D"},{"address":"48 York Street Clitheroe BB7\n1DL 2786 27/02/24 26/02/29 3 6 1 shared kitchen 1\nshared bathroom 4 bathrooms 10","postcode":"BB7\n1DL","max_occupants":48,"ward":"Edisford & Low Moor","lat":53.869129,"lng":-2.399695,"lsoa":"Ribble Valley 003B"},{"address":"Higher Whitewell Farmhouse\nDunsop Road Whitewell BB7\n3AT 3021 14/07/25 13/07/30 3 8 3 bathrooms 1\nkitchen  14 in max of 8\nhouseholds","postcode":"BB7\n3AT","max_occupants":14,"ward":"Hurst Green & Whitewell","lat":53.917172,"lng":-2.520554,"lsoa":"Ribble Valley 001B"},{"address":"51 Peel Street Clitheroe BB7\n1NF 3655 13/01/22 12/01/27 2 5 1 shared\nBathroom kitchen\nutility WC 4 bathrooms 7 in max of 5\nhouseholds","postcode":"BB7\n1NF","max_occupants":51,"ward":"Littlemoor","lat":53.869361,"lng":-2.389052,"lsoa":"Ribble Valley 003C"},{"address":"3 De Lacy Street Clitheroe\nBB7 2EE 3928 31/01/24 03/01/29 2 5 1 shared kitchen 5 bathrooms 6 in max of 5\nhouseholds","postcode":"BB7 2EE","max_occupants":3,"ward":"St Mary's","lat":53.871194,"lng":-2.397525,"lsoa":"Ribble Valley 002B"},{"address":"27-27 Bawdlands Clitheroe\nBB7 2LA 4115 15/09/25 14/09/30 2 6 1 shared kitched 6 bathrooms 6","postcode":"BB7 2LA","max_occupants":27,"ward":"St Mary's","lat":53.87002,"lng":-2.399141,"lsoa":"Ribble Valley 003B"}],"planning_hmos":[],"summary":{"total_licensed":9,"total_planning_apps":0,"total_combined":9,"total_bed_spaces":205,"avg_occupants":22.8,"planning_approved":0,"planning_refused":0,"planning_pending":0,"planning_approval_rate":null,"by_ward":{"Brockhall & Dinckley":{"licensed_hmos":3,"planning_applications":0,"total":3},"St Mary's":{"licensed_hmos":2,"planning_applications":0,"total":2},"Primrose":{"licensed_hmos":1,"planning_applications":0,"total":1},"Edisford & Low Moor":{"licensed_hmos":1,"planning_applications":0,"total":1},"Hurst Green & Whitewell":{"licensed_hmos":1,"planning_applications":0,"total":1},"Littlemoor":{"licensed_hmos":1,"planning_applications":0,"total":1}},"hotspot_postcodes":[{"postcode":"BB7","count":6},{"postcode":"BB6","count":3}],"top_ward":"Brockhall & Dinckley"}}